{"type":"FeatureCollection","features":[{"type":"Feature","properties":{},"geometry":{"type":"MultiLineString","coordinates":[[[11.0851,35.5068],[11.0392,35.5185],[11.0239,35.5338],[11.0149,35.5552],[11.0139,35.5629],[11.012,35.579],[11.0171,35.6023],[11.055,35.6145],[11.041,35.6377],[11.012,35.6579],[10.9718,35.6541],[10.8815,35.683],[10.8412,35.6988],[10.8296,35.7131],[10.8245,35.7334],[10.8303,35.7532],[10.8414,35.7665],[10.8231,35.7805],[10.8138,35.785],[10.8037,35.7869],[10.7436,35.7697],[10.7131,35.7792],[10.6937,35.7878],[10.6913,35.7896],[10.6221,35.8426],[10.6086,35.8559],[10.5823,35.9218],[10.5703,35.9316],[10.5565,35.938],[10.5405,35.9528],[10.5186,35.98],[10.5148,35.9891],[10.5091,36.0112],[10.5047,36.0209],[10.4998,36.0273],[10.4924,36.0453],[10.4795,36.0793],[10.4747,36.1125],[10.4769,36.1655],[10.4793,36.217],[10.4911,36.2581],[10.5048,36.2994],[10.5191,36.3375],[10.5509,36.3773],[10.5856,36.3981],[10.6204,36.3903],[10.7172,36.4346],[10.7999,36.4519],[10.8257,36.4798],[10.8795,36.5885],[10.9499,36.6939],[10.9925,36.7441],[11.0221,36.7883],[11.0767,36.8252],[11.1168,36.8384],[11.1305,36.854],[11.1362,36.8705],[11.1243,36.8857],[11.1184,36.8912],[11.1131,36.8942],[11.106,36.9016],[11.0991,36.9106],[11.0945,36.9184],[11.0918,36.9282],[11.0901,36.9496],[11.0877,36.9594],[11.0813,36.9694],[11.064,36.9901],[11.0603,36.997],[11.0581,37.006],[11.0483,37.0203],[11.0461,37.0314],[11.0486,37.042],[11.0589,37.0539],[11.0603,37.0625],[11.051,37.0803],[11.0334,37.0875],[11.0127,37.0848],[10.9741,37.0613],[10.9237,37.057],[10.9021,37.0488],[10.8929,37.0386],[10.8947,37.0322],[10.8984,37.0252],[10.8958,37.0141],[10.8875,37.006],[10.8301,36.9682],[10.8269,36.9632],[10.8231,36.9539],[10.814,36.9504],[10.7832,36.9244],[10.7335,36.8958],[10.6947,36.8835],[10.6526,36.8769],[10.6061,36.8797],[10.585,36.8762],[10.5669,36.8632],[10.5526,36.8229],[10.546,36.7999],[10.5382,36.772],[10.5187,36.7558],[10.4877,36.7497],[10.437,36.7288],[10.4168,36.7296],[10.403,36.7267],[10.3553,36.7312],[10.3201,36.7488],[10.2936,36.7777],[10.2721,36.8161],[10.257,36.7938],[10.2539,36.7914],[10.2472,36.7863],[10.2342,36.7919],[10.2029,36.7926],[10.1885,36.7976],[10.1936,36.8123],[10.2107,36.8319],[10.2205,36.8378],[10.2529,36.8463],[10.2702,36.8485],[10.2796,36.8443],[10.2721,36.8291],[10.2852,36.82],[10.2988,36.8218],[10.3093,36.8298],[10.319,36.8502],[10.342,36.8686],[10.3472,36.8803],[10.337,36.8918],[10.3137,36.9184],[10.3032,36.9244],[10.2659,36.9389],[10.2201,36.9766],[10.1824,37.027],[10.1743,37.0762],[10.2175,37.1103],[10.2244,37.0959],[10.2303,37.1081],[10.2271,37.1177],[10.2182,37.1289],[10.2113,37.1376],[10.1919,37.1332],[10.1616,37.1343],[10.1354,37.1423],[10.1281,37.1587],[10.146,37.1712],[10.178,37.178],[10.2058,37.1751],[10.2113,37.1587],[10.2253,37.1667],[10.2401,37.1718],[10.2721,37.1785],[10.2531,37.1914],[10.1787,37.2127],[10.1463,37.2365],[10.0759,37.2449],[10.0598,37.2648],[10.0513,37.2666],[9.9978,37.2475],[9.9798,37.246],[9.8825,37.2636],[9.8674,37.2617],[9.8639,37.259],[9.8596,37.2541],[9.8535,37.2495],[9.8439,37.2475],[9.8196,37.2338],[9.8196,37.2276],[9.8311,37.2277],[9.8516,37.2329],[9.8612,37.2338],[9.925,37.2131],[9.9253,37.1968],[9.9143,37.1783],[9.9021,37.1649],[9.8799,37.1501],[9.8597,37.147],[9.8159,37.1518],[9.8078,37.155],[9.8015,37.1691],[9.7957,37.1723],[9.7907,37.1784],[9.7751,37.2058],[9.7718,37.2133],[9.7927,37.238],[9.8307,37.2512],[9.8617,37.2712],[9.8612,37.3164],[9.8591,37.3259],[9.8589,37.3288],[9.7734,37.3305],[9.7632,37.3336],[9.7551,37.3399],[9.7446,37.3452],[9.7324,37.3433],[9.7103,37.3362],[9.6663,37.3354],[9.6493,37.3319],[9.6284,37.3231],[9.5915,37.3029],[9.5731,37.3002],[9.5527,37.3095],[9.5386,37.298],[9.5173,37.2867],[9.4939,37.2781],[9.4645,37.2724],[9.4539,37.2683],[9.4429,37.2665],[9.4326,37.2714],[9.4191,37.2758],[9.4051,37.2685],[9.3807,37.2475],[9.3425,37.2353],[9.2107,37.2338],[9.1924,37.2261],[9.1714,37.1988],[9.1592,37.1928],[9.0794,37.1668],[9.0493,37.157],[9.0387,37.1518],[9.0108,37.1278],[9.001,37.124],[8.9876,37.1168],[8.9569,37.0693],[8.9258,37.0389],[8.9037,37.0217],[8.896,37.0189],[8.8657,37.0076],[8.8244,36.9795],[8.802,36.9731],[8.7166,36.9731],[8.6921,36.9694],[8.6211,36.9458],[8.6026,36.9395],[8.6019,36.9394],[8.4976,36.9042],[8.4632,36.9016],[8.4287,36.9042],[8.4144,36.9102],[8.4016,36.9186],[8.3888,36.9232],[8.374,36.9184],[8.356,36.9259],[8.3333,36.9278],[8.2881,36.9259],[8.2687,36.9337],[8.2512,36.9487],[8.2332,36.9581],[8.093,36.9018],[8.073,36.8874],[8.05,36.8776],[7.9085,36.8496],[7.8665,36.8544],[7.8099,36.8681],[7.7738,36.8898],[7.7734,36.89],[7.7912,36.9184],[7.7743,36.9315],[7.7786,36.9511],[7.791,36.9732],[7.7986,36.9936],[7.7891,36.9866],[7.7708,36.9701],[7.7608,36.9669],[7.7127,36.9632],[7.7048,36.9705],[7.696,36.977],[7.6858,36.9824],[7.6745,36.9868],[7.6619,36.9885],[7.6522,36.9862],[7.6434,36.9827],[7.6336,36.9805],[7.5889,36.9876],[7.5559,37.0079],[7.5261,37.0331],[7.4902,37.055],[7.4724,37.05],[7.4561,37.042],[7.4471,37.0466],[7.4383,37.0486],[7.4182,37.0488],[7.4046,37.0516],[7.3982,37.058],[7.3941,37.0693],[7.3869,37.0781],[7.3862,37.0821],[7.3835,37.083],[7.37,37.083],[7.3444,37.0714],[7.3359,37.0693],[7.3259,37.0712],[7.3073,37.0801],[7.2977,37.083],[7.2927,37.0825],[7.2883,37.0803],[7.281,37.0731],[7.2748,37.0693],[7.2707,37.071],[7.2664,37.0747],[7.2627,37.076],[7.2605,37.0767],[7.2513,37.0786],[7.2328,37.0872],[7.2227,37.0898],[7.2122,37.0893],[7.1927,37.0843],[7.1817,37.083],[7.1817,37.0767],[7.2111,37.057],[7.2505,37.0231],[7.2555,37.0154],[7.2573,37.0041],[7.2542,36.9947],[7.2471,36.9823],[7.239,36.9715],[7.2329,36.9669],[7.2188,36.9608],[7.1764,36.9319],[7.1675,36.9222],[7.157,36.9147],[7.1333,36.9153],[7.1081,36.9203],[7.0923,36.9259],[7.0645,36.9133],[6.9756,36.8912],[6.9486,36.89],[6.9094,36.8931],[6.8796,36.9021],[6.8801,36.9184],[6.8696,36.9292],[6.8528,36.9403],[6.8348,36.9491],[6.822,36.9526],[6.6712,36.9594],[6.6511,36.9639],[6.6316,36.9724],[6.6141,36.9779],[6.5995,36.9731],[6.5833,36.9898],[6.5728,37.0278],[6.5613,37.0351],[6.5523,37.0367],[6.547,37.0412],[6.5447,37.0486],[6.5442,37.0588],[6.5386,37.0604],[6.5027,37.083],[6.4624,37.0939],[6.4158,37.093],[6.3716,37.0835],[6.3387,37.0693],[6.3289,37.0619],[6.3146,37.0487],[6.2744,37.0242],[6.2669,37.0178],[6.2544,36.999],[6.2547,36.9833],[6.2586,36.9668],[6.2568,36.9458],[6.2357,36.9212],[6.197,36.9023],[6.0371,36.8536],[5.8688,36.8229],[5.8278,36.8218],[5.7588,36.8334],[5.7337,36.8323],[5.7105,36.8255],[5.6746,36.7996],[5.6559,36.7918],[5.612,36.7813],[5.5939,36.7739],[5.5762,36.7614],[5.5628,36.746],[5.549,36.7097],[5.5291,36.6977],[5.4891,36.6851],[5.4822,36.6802],[5.4696,36.6677],[5.4649,36.6652],[5.4338,36.6652],[5.4281,36.6639],[5.3724,36.6509],[5.3044,36.643],[5.2691,36.6441],[5.2359,36.6509],[5.1184,36.6994],[5.0902,36.7168],[5.0848,36.7326],[5.1048,36.7813],[5.0862,36.7808],[5.0656,36.7835],[5.0459,36.7885],[5.0291,36.795],[5.0252,36.7987],[5.0164,36.811],[5.0093,36.8161],[4.9995,36.8171],[4.9857,36.8171],[4.9736,36.8189],[4.9683,36.8257],[4.9499,36.8398],[4.7871,36.8954],[4.7691,36.898],[4.698,36.8912],[4.6229,36.8964],[4.5915,36.8952],[4.5816,36.8949],[4.5505,36.8837],[4.5364,36.8886],[4.5041,36.8893],[4.492,36.8946],[4.4824,36.9005],[4.4681,36.906],[4.453,36.9101],[4.4407,36.9116],[4.3203,36.898],[4.306,36.9005],[4.2786,36.9105],[4.262,36.9116],[4.2493,36.9079],[4.2228,36.8942],[4.2105,36.8912],[4.197,36.8933],[4.1716,36.9022],[4.1595,36.9042],[4.1465,36.9018],[4.1048,36.8837],[4.0855,36.8921],[4.0395,36.8969],[4.0314,36.8978],[3.9964,36.8969],[3.9749,36.8923],[3.964,36.8912],[3.9483,36.8933],[3.9126,36.9116],[3.8739,36.9172],[3.8275,36.9129],[3.7419,36.8912],[3.7095,36.8732],[3.6497,36.824],[3.6121,36.8086],[3.6018,36.8081],[3.5804,36.81],[3.5706,36.8086],[3.5643,36.8043],[3.5581,36.7977],[3.5505,36.7914],[3.5398,36.7888],[3.5191,36.7866],[3.4805,36.7772],[3.4607,36.7751],[3.3405,36.7807],[3.303,36.7888],[3.2378,36.8131],[3.2273,36.8123],[3.2261,36.7862],[3.2212,36.7714],[3.2105,36.7574],[3.1794,36.7428],[3.1733,36.7426],[3.1401,36.7416],[3.1018,36.7519],[3.074,36.7714],[3.0479,36.795],[3.0142,36.8117],[2.9849,36.815],[2.9771,36.8159],[2.9331,36.8086],[2.8757,36.7748],[2.8499,36.7541],[2.8436,36.7404],[2.8187,36.7109],[2.793,36.6929],[2.7275,36.6652],[2.633,36.6051],[2.6008,36.5963],[2.457,36.5895],[2.4473,36.5906],[2.4268,36.5953],[2.416,36.5963],[2.4041,36.5992],[2.4002,36.6062],[2.3982,36.6153],[2.3919,36.6243],[2.3733,36.6339],[2.3516,36.6383],[2.3296,36.6373],[2.3098,36.6305],[2.0599,36.5701],[1.9728,36.5616],[1.9605,36.5622],[1.9138,36.5702],[1.8576,36.5675],[1.8029,36.5554],[1.7915,36.5555],[1.77,36.5605],[1.7612,36.5616],[1.7502,36.5591],[1.7267,36.55],[1.7166,36.5479],[1.7009,36.5472],[1.5174,36.5387],[1.4763,36.529],[1.4528,36.528],[1.4295,36.5322],[1.386,36.5452],[1.3677,36.5479],[1.3467,36.545],[1.2883,36.5212],[1.2655,36.5153],[1.2455,36.5136],[1.2026,36.5144],[1.1787,36.5109],[1.1388,36.4934],[1.117,36.4871],[1.0448,36.4869],[1.0071,36.4669],[0.9626,36.4582],[0.9456,36.4523],[0.9363,36.4436],[0.9321,36.4346],[0.9295,36.4259],[0.9251,36.4182],[0.9138,36.4091],[0.8909,36.3964],[0.8805,36.3872],[0.8648,36.3774],[0.8023,36.3636],[0.7687,36.3447],[0.7533,36.3386],[0.7404,36.3378],[0.6633,36.3326],[0.6441,36.3288],[0.6272,36.3192],[0.6118,36.3055],[0.5946,36.2932],[0.5567,36.2841],[0.4832,36.2436],[0.4683,36.2322],[0.4513,36.2232],[0.4284,36.2196],[0.3845,36.218],[0.36,36.2139],[0.3423,36.206],[0.3376,36.1975],[0.3328,36.1738],[0.3293,36.165],[0.3211,36.1589],[0.2991,36.1474],[0.2944,36.1408],[0.2835,36.1344],[0.2195,36.1165],[0.2022,36.1065],[0.154,36.065],[0.1455,36.06],[0.1356,36.0556],[0.1273,36.0508],[0.1238,36.0446],[0.1224,36.0334],[0.114,36.0102],[0.0802,35.947],[0.07,35.9218],[0.0345,35.8633],[0.0029,35.838],[-0.0385,35.8133],[-0.0831,35.7944],[-0.1137,35.7888],[-0.1239,35.7869],[-0.1451,35.7904],[-0.1881,35.8052],[-0.2594,35.8175],[-0.2856,35.8283],[-0.3019,35.8428],[-0.3046,35.8535],[-0.2985,35.8672],[-0.3019,35.8776],[-0.3092,35.8812],[-0.3207,35.8841],[-0.3315,35.8896],[-0.3362,35.9008],[-0.3485,35.907],[-0.3761,35.9003],[-0.418,35.8838],[-0.4281,35.8828],[-0.449,35.8843],[-0.4591,35.8838],[-0.4629,35.8852],[-0.468,35.8887],[-0.4738,35.8913],[-0.4795,35.89],[-0.4808,35.8857],[-0.4803,35.8791],[-0.4784,35.8729],[-0.4761,35.8701],[-0.477,35.8594],[-0.5234,35.7797],[-0.5304,35.7729],[-0.5409,35.7678],[-0.5513,35.769],[-0.5651,35.7724],[-0.5773,35.7708],[-0.5893,35.7425],[-0.6061,35.7309],[-0.6265,35.723],[-0.6445,35.7193],[-0.6826,35.7174],[-0.6925,35.7193],[-0.7013,35.7269],[-0.7059,35.7357],[-0.7113,35.743],[-0.7231,35.746],[-0.7345,35.7472],[-0.754,35.7523],[-0.764,35.7534],[-0.7772,35.7564],[-0.7861,35.7631],[-0.7935,35.7701],[-0.8017,35.7739],[-0.825,35.7685],[-0.8495,35.7343],[-0.8876,35.716],[-0.8994,35.7118],[-0.9047,35.7159],[-0.9102,35.7243],[-0.9227,35.7252],[-0.9463,35.7193],[-0.9615,35.7112],[-0.9777,35.6998],[-0.9967,35.6896],[-1.0329,35.6826],[-1.0404,35.6764],[-1.0521,35.661],[-1.0828,35.6374],[-1.1064,35.6232],[-1.117,35.6169],[-1.1428,35.5869],[-1.148,35.5821],[-1.1715,35.581],[-1.1833,35.5765],[-1.1903,35.5661]],[[-5.1508,35.5161],[-5.1862,35.5438],[-5.2284,35.5685],[-5.2494,35.5846],[-5.26,35.6047],[-5.2768,35.6579],[-5.2775,35.6642],[-5.2754,35.6794],[-5.2768,35.6852],[-5.2819,35.6865],[-5.2989,35.6843],[-5.3048,35.6852],[-5.3127,35.6925],[-5.3188,35.7017],[-5.3226,35.7138],[-5.3274,35.7558],[-5.3424,35.8077],[-5.3457,35.8326],[-5.3408,35.8471],[-5.3407,35.8474],[-5.3356,35.8624],[-5.2919,35.8905],[-5.2831,35.9117],[-5.3093,35.9008],[-5.3274,35.9042],[-5.3441,35.9147],[-5.3662,35.9248],[-5.3852,35.9262],[-5.3988,35.9245],[-5.3993,35.9245],[-5.4055,35.9265],[-5.408,35.9247],[-5.4104,35.9171],[-5.4142,35.9094],[-5.4235,35.909],[-5.4355,35.9144],[-5.44,35.9181],[-5.4481,35.9185],[-5.4689,35.9103],[-5.4875,35.897],[-5.5233,35.8633],[-5.54,35.851],[-5.599,35.8223],[-5.616,35.8315],[-5.6397,35.8364],[-5.6634,35.8359],[-5.6809,35.8292],[-5.6935,35.8343],[-5.7117,35.8306],[-5.7299,35.8227],[-5.7423,35.8149],[-5.7693,35.7928],[-5.7814,35.7909],[-5.8734,35.802],[-5.908,35.7973],[-5.9272,35.7807],[-5.9362,35.7656],[-5.9431,35.7424],[-5.949,35.6954],[-5.9521,35.6855],[-5.9652,35.6702],[-5.9683,35.661],[-5.97,35.6525],[-5.9908,35.5985],[-6.0123,35.5588],[-6.0167,35.5446],[-6.0185,35.5202],[-6.0239,35.5012]]]}},{"type":"Feature","properties":{},"geometry":{"type":"MultiLineString","coordinates":[[[11.4893,42.3594],[11.4207,42.3866],[11.3962,42.393],[11.3962,42.4004],[11.3869,42.4043],[11.3766,42.4069],[11.3657,42.4079],[11.3547,42.4072],[11.3621,42.4004],[11.333,42.4006],[11.259,42.4208],[11.2456,42.4223],[11.2274,42.4222],[11.2113,42.4189],[11.2044,42.411],[11.2009,42.3955],[11.1863,42.3793],[11.1838,42.3663],[11.1747,42.3693],[11.1647,42.3693],[11.1574,42.3677],[11.1559,42.3663],[11.1478,42.3714],[11.1345,42.3842],[11.1066,42.3913],[11.0945,42.4027],[11.0868,42.4184],[11.0869,42.4295],[11.0991,42.4429],[11.113,42.4464],[11.1418,42.4388],[11.1642,42.4398],[11.1797,42.4565],[11.1884,42.4803],[11.189,42.5047],[11.1869,42.5208],[11.166,42.5462],[11.1585,42.564],[11.1486,42.5632],[11.1372,42.5589],[11.1287,42.5581],[11.116,42.572],[11.1073,42.5908],[11.0974,42.6069],[11.0809,42.6127],[11.0778,42.6322],[11.0535,42.647],[11.0057,42.6679],[11.0003,42.6799],[10.9956,42.696],[10.99,42.7103],[10.9812,42.7163],[10.9723,42.72],[10.9436,42.743],[10.8909,42.7639],[10.7313,42.8044],[10.7554,42.8192],[10.7649,42.8353],[10.7664,42.8542],[10.7656,42.8771],[10.7687,42.8839],[10.7746,42.8883],[10.7777,42.8947],[10.773,42.9081],[10.7635,42.9183],[10.7507,42.9253],[10.6814,42.949],[10.6325,42.9585],[10.5833,42.9597],[10.5391,42.9491],[10.5435,42.9388],[10.5466,42.9348],[10.5186,42.9253],[10.4995,42.9405],[10.4776,42.9901],[10.5027,43.0056],[10.5171,43.0239],[10.5391,43.0794],[10.5357,43.0914],[10.5357,43.1126],[10.5393,43.1342],[10.5466,43.1471],[10.5383,43.1643],[10.5344,43.1853],[10.5329,43.2262],[10.5282,43.2468],[10.5169,43.2668],[10.437,43.3886],[10.3734,43.4532],[10.3591,43.4653],[10.3263,43.4769],[10.3172,43.4926],[10.2948,43.5685],[10.264,43.8094],[10.2516,43.8466],[10.2101,43.9202],[10.1807,43.9553],[10.1365,43.9787],[10.1058,44.0168],[10.0906,44.0254],[10.072,44.0295],[10.0353,44.0478],[10.0148,44.0521],[9.9985,44.0581],[9.9885,44.0598],[9.9841,44.0555],[9.9807,44.0499],[9.9727,44.0457],[9.9627,44.0447],[9.9536,44.0487],[9.9378,44.0604],[9.9043,44.0799],[9.888,44.093],[9.8768,44.0878],[9.8447,44.1086],[9.8264,44.1072],[9.8333,44.0998],[9.8286,44.0981],[9.824,44.0951],[9.8196,44.093],[9.8245,44.0849],[9.8306,44.0788],[9.8381,44.0748],[9.8475,44.0725],[9.8475,44.0663],[9.8416,44.0634],[9.8389,44.0604],[9.8333,44.0521],[9.8464,44.0463],[9.8425,44.0412],[9.8323,44.0423],[9.8264,44.0555],[9.8198,44.0634],[9.7718,44.0794],[9.7209,44.1135],[9.7097,44.1177],[9.6826,44.1365],[9.6725,44.1408],[9.6432,44.1423],[9.631,44.1446],[9.6211,44.1483],[9.5862,44.1777],[9.5799,44.1789],[9.573,44.1916],[9.5565,44.2001],[9.5112,44.2152],[9.499,44.2218],[9.4898,44.2309],[9.4844,44.2438],[9.4725,44.2398],[9.4539,44.2377],[9.4368,44.2395],[9.4292,44.2473],[9.4224,44.2568],[9.3745,44.2718],[9.3677,44.2944],[9.2627,44.3364],[9.2306,44.3537],[9.221,44.3441],[9.2137,44.3334],[9.2098,44.3209],[9.2107,44.3053],[9.1651,44.3183],[9.1467,44.3286],[9.1486,44.34],[9.1301,44.3633],[9.1021,44.374],[9.0012,44.3873],[8.9529,44.3998],[8.9237,44.4116],[8.9146,44.4089],[8.8684,44.4097],[8.8454,44.4135],[8.8377,44.4172],[8.827,44.4285],[8.7624,44.4321],[8.7372,44.4288],[8.7248,44.424],[8.6958,44.4067],[8.6853,44.3981],[8.6786,44.3947],[8.6709,44.3947],[8.6628,44.3956],[8.6551,44.3947],[8.5938,44.3627],[8.5767,44.3605],[8.5648,44.3572],[8.5403,44.34],[8.4661,44.3043],[8.4445,44.2839],[8.4497,44.2644],[8.4395,44.2532],[8.4365,44.2475],[8.4354,44.2404],[8.4324,44.238],[8.4172,44.2307],[8.4119,44.227],[8.4065,44.215],[8.4085,44.2041],[8.4082,44.1935],[8.3945,44.1824],[8.3694,44.1735],[8.3135,44.1605],[8.2847,44.1483],[8.2695,44.1387],[8.2565,44.1284],[8.2332,44.1036],[8.23,44.0963],[8.2312,44.0803],[8.23,44.0725],[8.2238,44.0572],[8.2163,44.0452],[8.1691,44.0067],[8.1527,43.9832],[8.168,43.9626],[8.168,43.9565],[8.1447,43.9526],[8.1152,43.9277],[8.0892,43.9199],[8.0816,43.9152],[8.0755,43.9097],[8.073,43.9046],[8.0677,43.8967],[8.0557,43.8921],[8.0314,43.8875],[7.9597,43.8529],[7.7858,43.822],[7.7366,43.7982],[7.695,43.7912],[7.572,43.7913],[7.5441,43.7845],[7.5311,43.7845],[7.5232,43.789],[7.5129,43.7921],[7.5023,43.7922],[7.4891,43.7855],[7.4849,43.7854],[7.4807,43.7858],[7.4764,43.7845],[7.4758,43.7808],[7.4773,43.7681],[7.4764,43.7646],[7.4684,43.7617],[7.4627,43.7621],[7.4543,43.7571],[7.446,43.7498],[7.4328,43.7399],[7.418,43.7309],[7.4043,43.718],[7.3807,43.7193],[7.3658,43.7227],[7.3532,43.7157],[7.3423,43.7078],[7.3381,43.6983],[7.3305,43.6864],[7.319,43.6853],[7.3009,43.6877],[7.2803,43.6933],[7.2573,43.6916],[7.2417,43.6849],[7.2285,43.6742],[7.2318,43.6635],[7.2138,43.6487],[7.2038,43.6444],[7.1967,43.6569],[7.1777,43.6601],[7.1646,43.6561],[7.1516,43.6548],[7.1442,43.6455],[7.1366,43.6412],[7.1331,43.6339],[7.1262,43.6058],[7.1321,43.5788],[7.1326,43.5736],[7.1362,43.5625],[7.1389,43.554],[7.1255,43.5478],[7.1129,43.5645],[7.1043,43.5683],[7.0884,43.5687],[7.0711,43.5608],[7.0581,43.5499],[7.0451,43.5421],[7.0372,43.5363],[7.0306,43.5479],[7.0145,43.5471],[6.9938,43.5489],[6.9756,43.5469],[6.9621,43.5401],[6.9452,43.5273],[6.9409,43.5125],[6.9496,43.5079],[6.949,43.5074],[6.9538,43.5046],[6.9543,43.5001],[6.9251,43.4728],[6.9204,43.449],[6.8982,43.438],[6.894,43.4276],[6.8711,43.4261],[6.8697,43.4321],[6.8666,43.4355],[6.863,43.4394],[6.858,43.4362],[6.8561,43.4287],[6.8601,43.4159],[6.8467,43.4126],[6.8348,43.4158],[6.8188,43.4161],[6.7831,43.4086],[6.773,43.4185],[6.7571,43.4227],[6.7465,43.4179],[6.7311,43.4078],[6.7328,43.3821],[6.7178,43.3669],[6.7178,43.3506],[6.6939,43.3484],[6.6746,43.3464],[6.666,43.3332],[6.6613,43.3223],[6.652,43.3149],[6.6246,43.2959],[6.5972,43.284],[6.5909,43.2689],[6.6117,43.2643],[6.6724,43.2762],[6.6934,43.273],[6.698,43.2655],[6.6854,43.248],[6.6684,43.2395],[6.6654,43.2213],[6.672,43.2136],[6.6798,43.2016],[6.6604,43.1904],[6.6404,43.1818],[6.6292,43.1799],[6.6099,43.1734],[6.5995,43.175],[6.5955,43.1799],[6.5933,43.1877],[6.5813,43.1844],[6.5637,43.1844],[6.5399,43.1822],[6.5364,43.1725],[6.5267,43.1606],[6.5057,43.151],[6.4792,43.1561],[6.4513,43.1527],[6.422,43.1523],[6.4017,43.1469],[6.3785,43.1361],[6.3661,43.1186],[6.3699,43.1055],[6.3754,43.0908],[6.3423,43.0908],[6.3289,43.0999],[6.3257,43.1042],[6.3062,43.1094],[6.2804,43.1187],[6.2535,43.1209],[6.2197,43.1165],[6.1932,43.1088],[6.1787,43.1029],[6.1629,43.0926],[6.1532,43.072],[6.1528,43.0481],[6.1713,43.0423],[6.1854,43.0454],[6.1801,43.0359],[6.1545,43.0338],[6.0977,43.0313],[6.0885,43.0348],[6.103,43.0408],[6.1193,43.0451],[6.1321,43.0526],[6.1291,43.0714],[6.1097,43.0843],[6.0919,43.0829],[6.0445,43.0782],[6.027,43.0782],[6.0165,43.0989],[5.9917,43.1023],[5.9587,43.1022],[5.9341,43.1136],[5.9365,43.1195],[5.9382,43.1291],[5.9409,43.134],[5.9245,43.1343],[5.9085,43.1313],[5.8794,43.1204],[5.8963,43.1154],[5.9106,43.0932],[5.9273,43.0876],[5.9514,43.08],[5.9403,43.0709],[5.9172,43.0727],[5.888,43.0722],[5.8753,43.0688],[5.8566,43.0448],[5.819,43.0535],[5.7902,43.0699],[5.7819,43.0791],[5.8029,43.0889],[5.8181,43.0991],[5.8115,43.1067],[5.8006,43.1118],[5.7834,43.1146],[5.7808,43.1233],[5.7761,43.1308],[5.7606,43.132],[5.741,43.1321],[5.6963,43.1469],[5.6877,43.1688],[5.6739,43.1799],[5.6552,43.1856],[5.6342,43.1872],[5.6229,43.1767],[5.6124,43.1604],[5.5883,43.168],[5.5727,43.1691],[5.559,43.1816],[5.5472,43.1939],[5.5378,43.2074],[5.525,43.2126],[5.5143,43.2077],[5.5042,43.2057],[5.4598,43.2085],[5.4398,43.2076],[5.4095,43.2113],[5.3953,43.2123],[5.3703,43.2079],[5.347,43.2159],[5.3506,43.2336],[5.3538,43.2438],[5.3609,43.254],[5.3692,43.2704],[5.3573,43.2803],[5.356,43.2921],[5.3518,43.2979],[5.3389,43.3343],[5.2942,43.3555],[5.2383,43.328],[5.1632,43.3293],[5.1252,43.3258],[5.0648,43.328],[5.034,43.3355],[5.0139,43.3579],[5.0056,43.3816],[5.0261,43.4093],[5.0571,43.4221],[5.1462,43.4221],[5.1738,43.4283],[5.1929,43.4395],[5.2136,43.4578],[5.2263,43.4803],[5.2228,43.504],[5.1936,43.4899],[5.1655,43.4825],[5.14,43.4858],[5.1184,43.504],[5.1115,43.5194],[5.1109,43.5279],[5.1057,43.533],[5.085,43.5382],[5.0774,43.5389],[5.0537,43.5382],[5.0496,43.5414],[5.0353,43.5557],[5.0291,43.5586],[5.0223,43.5522],[5.0159,43.5388],[5.011,43.5251],[5.0093,43.5176],[5.0147,43.4987],[5.0237,43.4905],[5.0358,43.4856],[5.0503,43.4767],[5.0623,43.4516],[5.0511,43.4293],[5.0276,43.417],[4.9985,43.4147],[4.9831,43.4171],[4.9285,43.4401],[4.9032,43.4316],[4.8926,43.4254],[4.8682,43.4215],[4.8584,43.4152],[4.8503,43.4014],[4.855,43.3962],[4.8649,43.3779],[4.8675,43.3651],[4.901,43.367],[4.8772,43.3508],[4.8558,43.3418],[4.8508,43.3589],[4.8333,43.382],[4.7918,43.3991],[4.7578,43.4223],[4.7424,43.4487],[4.745,43.5074],[4.7424,43.5245],[4.7362,43.5395],[4.7258,43.5568],[4.7119,43.5715],[4.6946,43.5791],[4.6946,43.5729],[4.7244,43.5384],[4.7288,43.5279],[4.7288,43.4562],[4.7425,43.4226],[4.7697,43.4019],[4.8001,43.3861],[4.823,43.3672],[4.8203,43.3464],[4.7912,43.3452],[4.6659,43.3475],[4.5923,43.3599],[4.5663,43.3711],[4.5655,43.3879],[4.5857,43.4042],[4.588,43.4169],[4.5796,43.4301],[4.5552,43.4433],[4.513,43.4558],[4.4094,43.4477],[4.2059,43.4599],[4.1817,43.4638],[4.1603,43.4715],[4.1328,43.487],[4.1172,43.5105],[4.1328,43.5328],[4.1312,43.5362],[4.1053,43.5519],[4.0475,43.5561],[3.9909,43.5508],[3.953,43.5399],[3.9393,43.5325],[3.7399,43.4128],[3.6222,43.3749],[3.5897,43.3549],[3.5134,43.2811],[3.4924,43.2743],[3.4524,43.2888],[3.4284,43.2855],[3.3854,43.2839],[3.3177,43.2631],[3.2443,43.2194],[3.2275,43.2043],[3.221,43.1952],[3.2073,43.1866],[3.1959,43.1767],[3.1787,43.1652],[3.1659,43.1524],[3.1545,43.1353],[3.136,43.121],[3.114,43.1063],[3.1042,43.0878],[3.096,43.0726],[3.086,43.054],[3.0704,43.0269],[3.0632,43.0084],[3.0561,42.9927],[3.0462,42.9642],[3.039,42.9428],[3.0418,42.9328],[3.0547,42.9271],[3.0561,42.9071],[3.0475,42.8472],[3.0405,42.7902],[3.039,42.7503],[3.0433,42.7246],[3.0376,42.6832],[3.0418,42.6291],[3.0462,42.5877],[3.0518,42.5549],[3.0661,42.5421],[3.0875,42.5349],[3.1146,42.5306],[3.1374,42.5249],[3.1459,42.515],[3.1459,42.5035],[3.1431,42.4921],[3.1502,42.4822],[3.1602,42.475],[3.1759,42.4565],[3.1816,42.4351],[3.1787,42.418],[3.1702,42.3966],[3.1745,42.3809],[3.1745,42.3638],[3.1873,42.3495],[3.2042,42.3396],[3.2265,42.3425],[3.2498,42.3432],[3.263,42.3292],[3.2699,42.3292],[3.2806,42.3369],[3.2937,42.335],[3.3177,42.323],[3.294,42.288],[3.2904,42.2781],[3.287,42.2629],[3.2794,42.2556],[3.2704,42.2501],[3.263,42.2399],[3.2472,42.2457],[3.2101,42.2397],[3.1787,42.2497],[3.1702,42.2597],[3.1516,42.2568],[3.1303,42.2397],[3.1188,42.2183],[3.1174,42.1828],[3.1165,42.1584],[3.1225,42.1405],[3.1386,42.1276],[3.1731,42.112],[3.1923,42.0929],[3.2145,42.0683],[3.213,42.056],[3.1999,42.0462],[3.1959,42.0331],[3.2016,42.0174],[3.207,41.9967],[3.2079,41.99],[3.2118,41.9846],[3.2306,41.973],[3.2357,41.9655],[3.2322,41.946],[3.2074,41.9139],[3.1949,41.8883],[3.1786,41.8752],[3.1502,41.8454],[3.1168,41.8476],[3.0786,41.8266],[3.0691,41.7991],[3.0403,41.7869],[2.9509,41.7343],[2.933,41.7125],[2.9009,41.7067],[2.8773,41.702],[2.8511,41.6972],[2.8402,41.6946],[2.8355,41.6926],[2.8202,41.682],[2.8171,41.6776],[2.8132,41.6703],[2.8037,41.6686],[2.792,41.669],[2.7785,41.6456],[2.6519,41.6053],[2.4495,41.5352],[2.429,41.5189],[2.3713,41.4892],[2.2967,41.4653],[2.2673,41.4486],[2.2404,41.421],[2.1919,41.3568],[2.1633,41.3266],[2.1305,41.3037],[2.0603,41.2746],[2.0197,41.2659],[1.9513,41.2607],[1.8841,41.2475],[1.8638,41.2381],[1.854,41.236],[1.8198,41.2371],[1.6244,41.1922],[1.5392,41.1874],[1.2881,41.1163],[1.2178,41.1047],[1.2101,41.0999],[1.1925,41.076],[1.1886,41.0683],[1.1836,41.0626],[1.1729,41.0587],[1.1491,41.0696],[1.1417,41.0717],[1.0977,41.0709],[1.0557,41.0649],[1.0174,41.0518],[0.9904,41.0397],[0.8775,40.9548],[0.8228,40.8996],[0.7142,40.8152],[0.6948,40.786],[0.7215,40.7743],[0.7502,40.7656],[0.7624,40.7661],[0.7673,40.771],[0.7635,40.7784],[0.7502,40.786],[0.7669,40.785],[0.7805,40.7795],[0.792,40.7712],[0.8159,40.7484],[0.8418,40.7321],[0.8542,40.7331],[0.8737,40.7279],[0.8724,40.7071],[0.8581,40.6863],[0.8483,40.6754],[0.784,40.661],[0.7564,40.6422],[0.707,40.5834],[0.6771,40.5652],[0.648,40.5569],[0.6159,40.5535],[0.5925,40.5821],[0.6406,40.5869],[0.6632,40.5747],[0.6962,40.5904],[0.7327,40.6337],[0.7125,40.6362],[0.6822,40.6342],[0.5998,40.6137],[0.5802,40.6037],[0.5635,40.59],[0.5485,40.5723],[0.5174,40.5144],[0.5013,40.4842],[0.4834,40.465],[0.4662,40.4507],[0.4526,40.4341],[0.4461,40.4084],[0.4203,40.3883],[0.3506,40.2849],[0.339,40.2744],[0.3121,40.2575],[0.2988,40.2468],[0.2647,40.2098],[0.2053,40.1715],[0.1445,40.0788],[0.117,40.0563],[0.0662,40.0319],[0.0405,40.0029],[-0.0029,39.932],[-0.0287,39.9018],[-0.0913,39.8479],[-0.1945,39.7154],[-0.1998,39.7049],[-0.2021,39.6809],[-0.2089,39.6641],[-0.2198,39.6514],[-0.2437,39.631],[-0.2574,39.6162],[-0.2696,39.5987],[-0.2749,39.5818],[-0.2815,39.5694],[-0.3127,39.534],[-0.3234,39.5162],[-0.3306,39.4804],[-0.3275,39.4307],[-0.3207,39.3881],[-0.3013,39.322],[-0.2387,39.2154],[-0.2278,39.1993],[-0.2155,39.1818],[-0.2279,39.1752],[-0.2422,39.1663],[-0.2365,39.1481],[-0.2267,39.1118],[-0.21,39.0787],[-0.184,39.0423],[-0.158,39.0021],[-0.1207,38.9511],[-0.1059,38.9365],[-0.0686,38.9134],[-0.031,38.8828],[-0.0098,38.8697],[0.0174,38.8643],[0.0631,38.8608],[0.111,38.8499],[0.154,38.831],[0.1853,38.8035],[0.181,38.8019],[0.1709,38.7961],[0.1829,38.7918],[0.1908,38.7852],[0.2179,38.7681],[0.2277,38.7702],[0.2341,38.7579],[0.2345,38.7423],[0.2277,38.7346],[0.209,38.7337],[0.1921,38.7304],[0.1768,38.724],[0.1626,38.7135],[0.1509,38.6925],[0.1489,38.6899],[0.145,38.6863],[0.1257,38.6855],[0.1186,38.6828],[0.1053,38.6726],[0.0937,38.6676],[0.083,38.661],[0.0731,38.6452],[0.0806,38.631],[0.0604,38.6348],[0.0466,38.6322],[0.0334,38.6274],[0.015,38.6247],[-0.0148,38.6244],[-0.0288,38.6207],[-0.043,38.6117],[-0.0548,38.5953],[-0.0551,38.5808],[-0.0536,38.567],[-0.06,38.5527],[-0.0754,38.5399],[-0.0902,38.5353],[-0.1317,38.5353],[-0.177,38.5272],[-0.2021,38.5196],[-0.234,38.5017],[-0.3294,38.47],[-0.3446,38.4616],[-0.3508,38.45],[-0.3587,38.446],[-0.3952,38.4138],[-0.4061,38.3989],[-0.4101,38.3793],[-0.41,38.369],[-0.4137,38.3648],[-0.4459,38.3634],[-0.4602,38.3601],[-0.4706,38.3519],[-0.4744,38.3367],[-0.5098,38.3384],[-0.5188,38.2987],[-0.504,38.2072],[-0.5155,38.1955],[-0.5329,38.1922],[-0.5688,38.1942],[-0.5914,38.1896],[-0.6095,38.178],[-0.6237,38.1624],[-0.6344,38.1458],[-0.6407,38.1317],[-0.645,38.116],[-0.648,38.0738],[-0.6525,38.0078],[-0.6545,37.9893],[-0.6634,37.9803],[-0.6899,37.9722],[-0.7089,37.9563],[-0.7184,37.943],[-0.7586,37.8633],[-0.7607,37.8471],[-0.7606,37.8459],[-0.7561,37.8061],[-0.7607,37.7961],[-0.788,37.8228],[-0.8124,37.7701],[-0.8256,37.7614],[-0.8478,37.7561],[-0.8561,37.7425],[-0.8526,37.7238],[-0.8198,37.6767],[-0.8099,37.6669],[-0.7777,37.6501],[-0.7548,37.6413],[-0.7349,37.6394],[-0.7265,37.6515],[-0.708,37.643],[-0.7012,37.6313],[-0.7053,37.6195],[-0.7197,37.6105],[-0.7279,37.6034],[-0.7366,37.5994],[-0.7457,37.5994],[-0.7545,37.6043],[-0.764,37.5996],[-0.7915,37.5915],[-0.808,37.5884],[-0.8364,37.5764],[-0.8739,37.5764],[-0.8867,37.5743],[-0.9006,37.569],[-0.9252,37.5559],[-0.9337,37.561],[-0.9735,37.5764],[-1.0064,37.5814],[-1.0699,37.5826],[-1.0878,37.5809],[-1.1034,37.5764],[-1.1147,37.5687],[-1.12,37.559],[-1.1169,37.5494],[-1.1058,37.5321],[-1.1372,37.538],[-1.1671,37.5438],[-1.1734,37.5551],[-1.1786,37.5639],[-1.1997,37.5666],[-1.229,37.5761],[-1.2427,37.5792],[-1.2577,37.567],[-1.2617,37.5577],[-1.2898,37.5584],[-1.3237,37.562],[-1.3533,37.5499],[-1.3692,37.5414],[-1.4137,37.5065],[-1.4304,37.4981],[-1.4502,37.4947],[-1.4556,37.4927],[-1.4635,37.488],[-1.4709,37.4822],[-1.4741,37.4776],[-1.4767,37.4727],[-1.4873,37.4398],[-1.4884,37.4332],[-1.4969,37.4278],[-1.5028,37.4293],[-1.5082,37.4327],[-1.515,37.4332],[-1.5239,37.4287],[-1.5437,37.415],[-1.553,37.4122],[-1.5677,37.4099],[-1.6187,37.3923],[-1.6416,37.381],[-1.6459,37.3692],[-1.6528,37.3613],[-1.6709,37.3633],[-1.6802,37.3544],[-1.6858,37.337],[-1.699,37.3164],[-1.7285,37.2824],[-1.7872,37.2352],[-1.8127,37.2071],[-1.8304,37.1664],[-1.8378,37.1316],[-1.8498,37.1044],[-1.8552,37.0766],[-1.885,37.0155],[-1.9061,36.9876],[-1.907,36.9753],[-1.9042,36.9664],[-1.9005,36.9588],[-1.8987,36.9501],[-1.9003,36.9412],[-1.9052,36.936],[-1.9129,36.9335],[-1.9353,36.9322],[-1.9414,36.9299],[-1.9538,36.9199],[-1.9889,36.9005],[-2.0028,36.887],[-2.0131,36.8458],[-2.0248,36.8338],[-2.0405,36.8243],[-2.0569,36.8101],[-2.0607,36.8024],[-2.0659,36.7836],[-2.0712,36.7753],[-2.0803,36.7706],[-2.0914,36.7683],[-2.1008,36.7652],[-2.1111,36.7461],[-2.1267,36.7364],[-2.1467,36.7299],[-2.1661,36.7276],[-2.2036,36.7371],[-2.2317,36.7601],[-2.2561,36.7874],[-2.2828,36.8101],[-2.3183,36.8279],[-2.3391,36.8343],[-2.3617,36.8368],[-2.3802,36.8338],[-2.4127,36.82],[-2.4331,36.8163],[-2.4423,36.8183],[-2.4694,36.8277],[-2.4814,36.8299],[-2.5608,36.8188],[-2.5769,36.8113],[-2.5967,36.7731],[-2.6172,36.7284],[-2.6427,36.707],[-2.6476,36.7042],[-2.6589,36.6948],[-2.6844,36.686],[-2.7183,36.682],[-2.7362,36.6874],[-2.7567,36.6804],[-2.7829,36.6946],[-2.8026,36.7073],[-2.821,36.7139],[-2.83,36.7117],[-2.8391,36.7024],[-2.8483,36.7002],[-2.8588,36.7049],[-2.8861,36.7344],[-2.914,36.7503],[-2.9333,36.7517],[-2.9877,36.7371],[-3.0765,36.7498],[-3.1567,36.7445],[-3.2279,36.7548],[-3.3296,36.7449],[-3.3444,36.7369],[-3.3583,36.7259],[-3.3788,36.7139],[-3.4152,36.6955],[-3.4776,36.6961],[-3.516,36.721],[-3.5361,36.7184],[-3.5498,36.7124],[-3.5864,36.7266],[-3.6011,36.7426],[-3.6324,36.7413],[-3.6657,36.7394],[-3.6798,36.7288],[-3.7313,36.7241],[-3.8034,36.7425],[-3.8385,36.752],[-3.8894,36.7434],[-3.961,36.7268],[-4.0567,36.748],[-4.08,36.7436],[-4.1102,36.7257],[-4.197,36.7154],[-4.2247,36.7124],[-4.4032,36.7239],[-4.4203,36.7199],[-4.4333,36.7107],[-4.4612,36.6715],[-4.4669,36.663],[-4.4805,36.6512],[-4.4911,36.6367],[-4.4954,36.6206],[-4.5248,36.5807],[-4.5878,36.5738],[-4.615,36.5306],[-4.6498,36.5121],[-4.6593,36.5076],[-4.6803,36.5008],[-4.7228,36.493],[-4.7642,36.494],[-4.8803,36.5057],[-4.9027,36.5065],[-4.9122,36.504],[-4.9235,36.4969],[-4.9942,36.4571],[-5.0625,36.4522],[-5.1087,36.429],[-5.121,36.4256],[-5.1576,36.4219],[-5.1737,36.4174],[-5.1866,36.4112],[-5.1997,36.3972],[-5.2271,36.3579],[-5.2279,36.3485],[-5.2447,36.3121],[-5.2537,36.2971],[-5.2586,36.2925],[-5.2659,36.2871],[-5.2741,36.2825],[-5.2906,36.2774],[-5.2895,36.2698],[-5.2853,36.2608],[-5.2966,36.2474],[-5.3293,36.1981],[-5.3341,36.1878],[-5.3399,36.1298],[-5.3391,36.1238],[-5.342,36.1105],[-5.3502,36.1193],[-5.3666,36.1632],[-5.3825,36.1723],[-5.4061,36.1792],[-5.4254,36.1798],[-5.4287,36.17],[-5.4379,36.1615],[-5.4423,36.1488],[-5.4415,36.1345],[-5.4349,36.1215],[-5.4399,36.1142],[-5.4372,36.0987],[-5.4316,36.0889],[-5.4287,36.0808],[-5.4318,36.0696],[-5.4386,36.0628],[-5.4455,36.0574],[-5.4665,36.0507],[-5.5666,36.0216],[-5.581,36.014],[-5.6118,36.0065],[-5.6297,36.0368],[-5.6717,36.056],[-5.6894,36.0671],[-5.7131,36.06],[-5.7339,36.0657],[-5.7537,36.0756],[-5.7961,36.0855],[-5.8113,36.0968],[-5.8328,36.1224],[-5.8979,36.1739],[-5.9172,36.1841],[-5.939,36.1838],[-5.9836,36.177],[-6.0368,36.1895],[-6.0625,36.2172],[-6.0822,36.2507],[-6.1047,36.2807],[-6.1595,36.3043],[-6.166,36.3187],[-6.1685,36.3353],[-6.1752,36.3536],[-6.1842,36.3707],[-6.2184,36.4025],[-6.2421,36.4465],[-6.2571,36.4764],[-6.2796,36.5113],[-6.3014,36.526],[-6.31,36.5341],[-6.2977,36.5388],[-6.2894,36.5373],[-6.2575,36.5138],[-6.249,36.5047],[-6.2541,36.4963],[-6.2467,36.4866],[-6.2315,36.4727],[-6.2191,36.475],[-6.2115,36.4805],[-6.2008,36.4938],[-6.1794,36.5135],[-6.1865,36.5142],[-6.2068,36.5089],[-6.2244,36.5108],[-6.2325,36.5262],[-6.226,36.5567],[-6.2349,36.5758],[-6.2832,36.6124],[-6.2939,36.6168],[-6.3617,36.6206],[-6.3798,36.6243],[-6.3947,36.6369],[-6.407,36.6767],[-6.4176,36.696],[-6.4315,36.7146],[-6.4379,36.7333],[-6.4333,36.7512],[-6.4145,36.7676],[-6.3963,36.7751],[-6.3589,36.7858],[-6.3456,36.795],[-6.3352,36.8183],[-6.3437,36.8599],[-6.3382,36.8837],[-6.3044,36.9072],[-6.2233,36.9023],[-6.1948,36.9321],[-6.214,36.9217],[-6.2397,36.9134],[-6.265,36.9129],[-6.2836,36.9259],[-6.3259,36.9127],[-6.3447,36.9013],[-6.3524,36.8803],[-6.3467,36.8199],[-6.3524,36.8086],[-6.388,36.8082],[-6.4162,36.8378],[-6.4486,36.9042],[-6.4711,36.9356],[-6.4996,36.9597]],[[-6.4997,43.5531],[-6.4883,43.5551],[-6.463,43.555],[-6.4648,43.5597],[-6.4673,43.5709],[-6.4691,43.5754],[-6.4553,43.5733],[-6.4318,43.5634],[-6.4176,43.5611],[-6.3661,43.5686],[-6.3146,43.5686],[-6.3,43.5706],[-6.2739,43.5796],[-6.25,43.5841],[-6.2439,43.5893],[-6.2364,43.5943],[-6.2228,43.5959],[-6.191,43.5786],[-6.178,43.5754],[-6.1004,43.5692],[-6.085,43.5754],[-6.0692,43.5697],[-6.0542,43.5746],[-6.0392,43.5831],[-6.0235,43.5884],[-5.9074,43.5884],[-5.9022,43.5975],[-5.9088,43.6049],[-5.9131,43.6129],[-5.9006,43.6232],[-5.9026,43.6265],[-5.9053,43.6338],[-5.9074,43.6368],[-5.8752,43.6368],[-5.8635,43.6414],[-5.859,43.6536],[-5.8522,43.663],[-5.8363,43.6622],[-5.8038,43.6505],[-5.7823,43.637],[-5.7274,43.5895],[-5.7089,43.5686],[-5.702,43.5686],[-5.6968,43.5828],[-5.6892,43.5786],[-5.6775,43.5611],[-5.6256,43.555],[-5.4242,43.5611],[-5.3939,43.5552],[-5.3907,43.5413],[-5.4036,43.5254],[-5.4208,43.5134],[-5.4139,43.5065],[-5.4037,43.5111],[-5.3826,43.5164],[-5.3724,43.5202],[-5.3651,43.5267],[-5.3622,43.5334],[-5.3568,43.5386],[-5.3419,43.5406],[-5.2999,43.5377],[-5.284,43.5335],[-5.2119,43.4984],[-5.1779,43.4894],[-5.0917,43.4863],[-5.0677,43.4814],[-5.057,43.4686],[-5.045,43.4743],[-4.9752,43.4588],[-4.9671,43.4609],[-4.9525,43.4701],[-4.941,43.4717],[-4.9302,43.4695],[-4.9076,43.4606],[-4.8365,43.4498],[-4.755,43.4217],[-4.7349,43.4171],[-4.5123,43.4027],[-4.5082,43.4025],[-4.4817,43.3836],[-4.4608,43.3987],[-4.4325,43.4026],[-4.4049,43.397],[-4.3856,43.3836],[-4.3793,43.3836],[-4.3688,43.3962],[-4.3594,43.3997],[-4.3128,43.3958],[-4.1886,43.4054],[-4.161,43.4212],[-4.0977,43.4356],[-4.074,43.4383],[-4.0292,43.4383],[-4.0234,43.4409],[-4.0226,43.4457],[-4.0209,43.4504],[-4.0128,43.4525],[-4.0057,43.4508],[-3.9814,43.4383],[-3.9765,43.4429],[-3.972,43.4442],[-3.9672,43.4442],[-3.961,43.4451],[-3.9654,43.4468],[-3.9746,43.4525],[-3.9746,43.4588],[-3.9401,43.4771],[-3.9227,43.4826],[-3.9063,43.4792],[-3.8938,43.4849],[-3.8909,43.4837],[-3.8859,43.4792],[-3.8568,43.4924],[-3.8267,43.497],[-3.797,43.4927],[-3.7692,43.4792],[-3.8127,43.4649],[-3.831,43.456],[-3.8443,43.4451],[-3.8339,43.4359],[-3.8293,43.4331],[-3.8238,43.4308],[-3.8273,43.43],[-3.83,43.4301],[-3.8315,43.4291],[-3.8313,43.4246],[-3.8202,43.4243],[-3.8112,43.4255],[-3.7965,43.4308],[-3.7895,43.4359],[-3.7762,43.4497],[-3.7723,43.4525],[-3.7635,43.4503],[-3.7541,43.4405],[-3.745,43.4383],[-3.7407,43.4423],[-3.743,43.4514],[-3.7489,43.4607],[-3.7555,43.4655],[-3.7555,43.4717],[-3.7415,43.4702],[-3.7357,43.4688],[-3.7289,43.4655],[-3.7272,43.4705],[-3.7258,43.4705],[-3.7214,43.4717],[-3.7289,43.4792],[-3.7179,43.4827],[-3.6884,43.4842],[-3.677,43.4894],[-3.6671,43.4966],[-3.6561,43.5007],[-3.5794,43.5183],[-3.5544,43.5169],[-3.5563,43.4997],[-3.5391,43.499],[-3.5256,43.4916],[-3.5147,43.4832],[-3.5054,43.4792],[-3.4366,43.4705],[-3.4315,43.4669],[-3.4283,43.4617],[-3.4272,43.4556],[-3.4286,43.4468],[-3.4326,43.4454],[-3.4389,43.4466],[-3.447,43.4451],[-3.4512,43.4477],[-3.4606,43.4522],[-3.47,43.4542],[-3.4744,43.4488],[-3.4778,43.4431],[-3.4858,43.4376],[-3.5017,43.4308],[-3.4818,43.428],[-3.4704,43.4168],[-3.4611,43.4125],[-3.447,43.4308],[-3.4362,43.419],[-3.4222,43.4181],[-3.3925,43.4246],[-3.378,43.4226],[-3.3303,43.4103],[-3.269,43.4041],[-3.2235,43.3916],[-3.2105,43.3898],[-3.2,43.3855],[-3.1769,43.3662],[-3.1509,43.3602],[-3.1315,43.3558],[-3.1124,43.3541],[-3.0895,43.3669],[-3.0579,43.3524],[-3.0082,43.3209],[-3.0082,43.3284],[-3.02,43.3526],[-3.0234,43.3649],[-3.0293,43.3721],[-3.0293,43.3762],[-3.0243,43.3809],[-3.011,43.3841],[-2.9994,43.3944],[-2.9559,43.4138],[-2.9399,43.4171],[-2.9399,43.4246],[-2.9467,43.4246],[-2.9467,43.4308],[-2.9301,43.4379],[-2.9053,43.4399],[-2.8542,43.4383],[-2.807,43.4417],[-2.786,43.4479],[-2.7686,43.4525],[-2.7558,43.4503],[-2.7349,43.4388],[-2.7152,43.4245],[-2.7065,43.4137],[-2.6949,43.3886],[-2.691,43.3675],[-2.687,43.3714],[-2.6793,43.3898],[-2.6785,43.3946],[-2.6788,43.4006],[-2.6778,43.4062],[-2.673,43.4103],[-2.6612,43.4119],[-2.6493,43.4095],[-2.6381,43.406],[-2.6069,43.4019],[-2.5489,43.3836],[-2.506,43.3771],[-2.4835,43.3706],[-2.4644,43.3492],[-2.3674,43.3157],[-2.3271,43.3068],[-2.2847,43.3035],[-2.2411,43.3072],[-2.2079,43.314],[-2.1963,43.3148],[-2.1904,43.3116],[-2.1835,43.3045],[-2.1745,43.2974],[-2.1622,43.2943],[-2.1596,43.2954],[-2.1563,43.2977],[-2.1515,43.3],[-2.1448,43.3011],[-2.14,43.2989],[-2.1378,43.2942],[-2.1348,43.2896],[-2.1278,43.2874],[-2.0989,43.3041],[-2.0864,43.3072],[-2.0655,43.3096],[-1.9946,43.3284],[-1.9718,43.3392],[-1.9604,43.3431],[-1.9456,43.3426],[-1.9337,43.3356],[-1.9266,43.3259],[-1.9187,43.321],[-1.9047,43.3284],[-1.9102,43.3314],[-1.9189,43.3386],[-1.9257,43.3426],[-1.8849,43.356],[-1.8474,43.3809],[-1.8113,43.3951],[-1.7914,43.3846],[-1.7908,43.3843],[-1.7755,43.3762],[-1.768,43.3836],[-1.7496,43.3892],[-1.661,43.3997],[-1.6378,43.4238],[-1.6155,43.4326],[-1.5967,43.4425],[-1.588,43.4512],[-1.5664,43.4822],[-1.5621,43.4934],[-1.5533,43.5014],[-1.514,43.5386],[-1.5063,43.5501],[-1.4769,43.5801],[-1.47,43.6115],[-1.446,43.6684],[-1.4049,43.8323],[-1.3812,43.8896],[-1.3461,44.0192],[-1.2816,44.3022],[-1.2541,44.4425],[-1.2473,44.5045],[-1.2497,44.5192],[-1.2583,44.5476],[-1.2572,44.5561],[-1.2308,44.5836],[-1.2269,44.5899],[-1.2242,44.602],[-1.2063,44.6479],[-1.1865,44.6655],[-1.1614,44.6662],[-1.1002,44.6553],[-1.065,44.6591],[-1.0447,44.6694],[-1.0444,44.6846],[-1.0692,44.7032],[-1.0555,44.7032],[-1.0653,44.7175],[-1.1409,44.7681],[-1.1517,44.7714],[-1.1564,44.7734],[-1.1606,44.7765],[-1.1654,44.7787],[-1.1722,44.7783],[-1.1765,44.7752],[-1.1785,44.7709],[-1.1798,44.7669],[-1.1821,44.7652],[-1.1886,44.7558],[-1.2336,44.7069],[-1.2449,44.6627],[-1.2538,44.6387],[-1.2604,44.6274],[-1.1995,45.1208],[-1.1579,45.2791],[-1.14,45.4901]],[[-0.973,45.4705],[-0.9308,45.4538],[-0.9153,45.4504],[-0.7942,45.3554],[-0.7662,45.3261],[-0.7545,45.2959],[-0.7519,45.2759],[-0.7387,45.2387],[-0.72,45.1459],[-0.716,45.1345],[-0.6822,45.0765],[-0.6482,45.0449],[-0.6099,45.0185],[-0.5778,45.0051],[-0.569,44.998],[-0.5607,44.9854],[-0.5592,44.9761],[-0.5621,44.9601],[-0.5609,44.9393],[-0.5565,44.9185],[-0.5482,44.9023],[-0.5347,44.895],[-0.5386,44.9088],[-0.5424,44.9372],[-0.5485,44.9495],[-0.539,44.9765],[-0.5504,44.9982],[-0.5726,45.0143],[-0.5962,45.0246],[-0.5653,45.0236],[-0.5394,45.0195],[-0.5164,45.0114],[-0.4938,44.998],[-0.519,45.0294],[-0.5587,45.0434],[-0.6022,45.0535],[-0.6378,45.0731],[-0.656,45.0991],[-0.6687,45.1308],[-0.7067,45.3224],[-0.7197,45.3611],[-0.753,45.4241],[-0.7731,45.4521],[-0.7955,45.4771]]]}},{"type":"Feature","properties":{},"geometry":{"type":"MultiLineString","coordinates":[[[-0.7327,37.7477],[-0.7375,37.7536],[-0.7436,37.764],[-0.747,37.7682],[-0.7482,37.7705],[-0.7482,37.7732],[-0.7494,37.7749],[-0.7545,37.7744],[-0.7503,37.746],[-0.7512,37.7133],[-0.7469,37.6838],[-0.7265,37.6652],[-0.7401,37.7025],[-0.7419,37.7255],[-0.7327,37.7477]]]}},{"type":"Feature","properties":{},"geometry":{"type":"MultiLineString","coordinates":[[[1.5264,38.6778],[1.4861,38.6946],[1.4375,38.7493],[1.4365,38.7516],[1.4365,38.754],[1.4354,38.7554],[1.4313,38.7549],[1.4279,38.7394],[1.4181,38.7279],[1.408,38.7245],[1.401,38.7303],[1.3886,38.7191],[1.3828,38.7116],[1.3865,38.7077],[1.3937,38.7042],[1.3933,38.6963],[1.3887,38.6871],[1.3835,38.6804],[1.3835,38.67],[1.3876,38.6624],[1.3829,38.6421],[1.397,38.6386],[1.4128,38.6464],[1.429,38.6649],[1.4387,38.6703],[1.4581,38.6813],[1.4742,38.6746],[1.5234,38.6494],[1.5575,38.6488],[1.5814,38.6531],[1.5824,38.6749],[1.5657,38.6915],[1.5264,38.6778]]]}},{"type":"Feature","properties":{},"geometry":{"type":"MultiLineString","coordinates":[[[8.4559,39.0736],[8.4446,39.1027],[8.4177,39.1066],[8.3859,39.105],[8.3604,39.1181],[8.346,39.0977],[8.346,39.0909],[8.3535,39.0909],[8.3535,39.0834],[8.3493,39.0622],[8.3649,39.0295],[8.4014,38.981],[8.405,38.974],[8.406,38.9669],[8.4098,38.9618],[8.4219,38.9605],[8.4325,38.9628],[8.437,38.9672],[8.4465,38.9943],[8.4539,39.0281],[8.4634,39.0425],[8.4593,39.0498],[8.464,39.0565],[8.4839,39.0698],[8.4792,39.0722],[8.4773,39.0707],[8.4764,39.0698],[8.4699,39.0657],[8.4631,39.0653],[8.458,39.0681],[8.4559,39.0736]]]}},{"type":"Feature","properties":{},"geometry":{"type":"MultiLineString","coordinates":[[[1.606,39.0913],[1.5979,39.0981],[1.5897,39.1028],[1.5784,39.1049],[1.5604,39.1058],[1.5536,39.1077],[1.5371,39.118],[1.5227,39.1189],[1.5086,39.1144],[1.4995,39.1049],[1.4787,39.1077],[1.4507,39.1018],[1.4232,39.0906],[1.4033,39.0776],[1.3919,39.0833],[1.3722,39.0714],[1.363,39.0776],[1.3568,39.0776],[1.3325,39.0572],[1.3176,39.0476],[1.3045,39.0434],[1.2928,39.0333],[1.2922,39.0099],[1.301,38.9678],[1.2769,38.968],[1.2673,38.9661],[1.2599,38.9609],[1.2482,38.9664],[1.2368,38.9652],[1.2267,38.9602],[1.2184,38.9541],[1.2275,38.942],[1.2243,38.9274],[1.2122,38.9032],[1.2166,38.8851],[1.2282,38.8746],[1.2599,38.8579],[1.2666,38.8703],[1.2835,38.8746],[1.3003,38.8705],[1.3078,38.8579],[1.3177,38.8598],[1.3186,38.8591],[1.322,38.8579],[1.3289,38.8579],[1.3435,38.8624],[1.3608,38.8519],[1.3706,38.8318],[1.4031,38.8323],[1.4041,38.8568],[1.4147,38.8906],[1.4286,38.8966],[1.445,38.9132],[1.4484,38.9088],[1.4549,38.904],[1.4587,38.9001],[1.4695,38.9103],[1.4972,38.9219],[1.5098,38.9302],[1.5412,38.9678],[1.5762,38.9858],[1.5814,38.9919],[1.5846,39.0074],[1.5933,39.0202],[1.6065,39.0284],[1.6231,39.0292],[1.6069,39.0624],[1.6008,39.0824],[1.606,39.0913]]]}},{"type":"Feature","properties":{},"geometry":{"type":"MultiLineString","coordinates":[[[8.3058,39.1933],[8.2903,39.1884],[8.2453,39.181],[8.23,39.1728],[8.2246,39.157],[8.2327,39.1441],[8.2573,39.1244],[8.2573,39.1181],[8.2547,39.1071],[8.2694,39.1002],[8.2901,39.0988],[8.3058,39.1046],[8.312,39.1203],[8.3063,39.1608],[8.3058,39.1933]]]}},{"type":"Feature","properties":{},"geometry":{"type":"MultiLineString","coordinates":[[[3.3545,39.7844],[3.3403,39.779],[3.3099,39.7551],[3.2925,39.7497],[3.2239,39.7497],[3.1948,39.755],[3.1626,39.7691],[3.1365,39.7888],[3.1248,39.8111],[3.1263,39.8319],[3.1336,39.8395],[3.1652,39.8459],[3.1815,39.8514],[3.1872,39.8544],[3.1931,39.8596],[3.1965,39.8671],[3.1956,39.8745],[3.1968,39.8812],[3.2068,39.8868],[3.2068,39.893],[3.1302,39.8764],[3.0947,39.8812],[3.0969,39.9135],[3.1043,39.9135],[3.1155,39.9088],[3.1275,39.9167],[3.1409,39.9281],[3.1556,39.934],[3.1685,39.9364],[3.2036,39.9492],[3.2142,39.9551],[3.2013,39.9605],[3.1984,39.9593],[3.1931,39.9551],[3.1795,39.9688],[3.0757,39.9361],[3.0203,39.9252],[2.9641,39.921],[2.9333,39.9145],[2.8731,39.8835],[2.8436,39.8726],[2.8342,39.8712],[2.8132,39.8726],[2.8096,39.8706],[2.8032,39.8616],[2.7997,39.8596],[2.7848,39.8567],[2.7732,39.8496],[2.7617,39.8405],[2.7474,39.8316],[2.7179,39.8201],[2.7106,39.8185],[2.7039,39.8142],[2.6836,39.7962],[2.6792,39.794],[2.676,39.7891],[2.6519,39.7701],[2.6475,39.7692],[2.636,39.771],[2.6314,39.7701],[2.6291,39.7669],[2.6219,39.7545],[2.6177,39.7497],[2.5866,39.7238],[2.5697,39.7131],[2.5524,39.7087],[2.5324,39.7064],[2.5176,39.7001],[2.4683,39.6594],[2.4505,39.6503],[2.4294,39.6467],[2.3577,39.6119],[2.3517,39.5967],[2.3508,39.5765],[2.3556,39.5587],[2.3737,39.5472],[2.3821,39.5292],[2.3919,39.5237],[2.3983,39.525],[2.426,39.5374],[2.4312,39.5277],[2.4382,39.5252],[2.4458,39.5289],[2.4539,39.5374],[2.4806,39.5162],[2.4722,39.5122],[2.469,39.5059],[2.4717,39.4979],[2.4738,39.4958],[2.4927,39.4702],[2.5202,39.4728],[2.5449,39.493],[2.5557,39.52],[2.5691,39.5315],[2.6335,39.5593],[2.6553,39.5647],[2.6817,39.5587],[2.7151,39.5435],[2.7435,39.5234],[2.7549,39.5026],[2.7395,39.4783],[2.7366,39.4621],[2.7512,39.4548],[2.7617,39.4002],[2.7866,39.3759],[2.8255,39.3636],[2.9126,39.3587],[2.9224,39.3597],[2.9382,39.3644],[2.95,39.3655],[2.9588,39.3632],[2.9745,39.3535],[2.9842,39.3511],[2.9914,39.3473],[2.9946,39.338],[2.9968,39.327],[3.0013,39.3177],[3.0073,39.3137],[3.023,39.3082],[3.0293,39.3046],[3.0567,39.273],[3.0608,39.2691],[3.07,39.2718],[3.0791,39.2769],[3.0833,39.2801],[3.091,39.2901],[3.1294,39.3157],[3.221,39.3599],[3.2526,39.3862],[3.2688,39.4276],[3.2727,39.4248],[3.2825,39.4201],[3.2918,39.4758],[3.3233,39.5239],[3.3654,39.5631],[3.406,39.592],[3.3987,39.6077],[3.4019,39.6232],[3.4131,39.6351],[3.4299,39.6398],[3.4432,39.6458],[3.4539,39.6597],[3.4675,39.6876],[3.4614,39.7001],[3.4644,39.7064],[3.4706,39.7103],[3.4744,39.7155],[3.4727,39.7236],[3.4694,39.7311],[3.4685,39.7393],[3.4744,39.7497],[3.4398,39.752],[3.3831,39.7779],[3.3545,39.7844]]]}},{"type":"Feature","properties":{},"geometry":{"type":"MultiLineString","coordinates":[[[4.3029,39.9255],[4.298,39.942],[4.2859,39.9446],[4.2701,39.9438],[4.2546,39.9497],[4.2724,39.9553],[4.2734,39.97],[4.2649,39.9864],[4.2546,39.9975],[4.2475,40.0004],[4.2327,40.0027],[4.2272,40.0049],[4.2169,40.0126],[4.2125,40.0172],[4.2067,40.0248],[4.1786,40.0388],[4.1726,40.0459],[4.1765,40.0592],[4.1705,40.0646],[4.1638,40.0606],[4.1658,40.0459],[4.1559,40.0347],[4.1485,40.0278],[4.1423,40.0248],[4.1354,40.0282],[4.1349,40.0357],[4.137,40.043],[4.1391,40.0459],[4.1168,40.0596],[4.1078,40.0676],[4.1051,40.0794],[4.0943,40.0747],[4.0776,40.0643],[4.0634,40.0596],[4.052,40.0582],[4.0119,40.0596],[3.9155,40.052],[3.8915,40.0596],[3.8219,40.0476],[3.8095,40.0354],[3.8071,40.0233],[3.8032,40.0181],[3.8034,40.0132],[3.8129,40.0012],[3.822,39.9951],[3.8424,39.9894],[3.8505,39.9839],[3.8391,39.9756],[3.8357,39.9624],[3.8349,39.948],[3.8307,39.9361],[3.8693,39.9255],[3.9413,39.9368],[3.9814,39.9361],[4.0151,39.9258],[4.1772,39.8433],[4.2481,39.8165],[4.3001,39.8218],[4.3029,39.8876],[4.3118,39.8842],[4.3198,39.8792],[4.3263,39.8734],[4.3303,39.8672],[4.3371,39.8672],[4.3288,39.8835],[4.3073,39.9105],[4.3029,39.9255]]]}},{"type":"Feature","properties":{},"geometry":{"type":"MultiLineString","coordinates":[[[8.2747,41.0573],[8.3324,41.0646],[8.3413,41.0741],[8.3447,41.0862],[8.342,41.0978],[8.3324,41.1057],[8.328,41.1125],[8.3259,41.1184],[8.3262,41.1261],[8.3133,41.1186],[8.308,41.1138],[8.3058,41.1091],[8.3021,41.105],[8.2844,41.1069],[8.2778,41.1057],[8.2756,41.0954],[8.2778,41.0817],[8.2756,41.0698],[8.2608,41.0646],[8.2414,41.0521],[8.2289,41.0417],[8.2232,41.0336],[8.2232,41.024],[8.2217,41.0144],[8.2176,41.005],[8.2096,40.9958],[8.2464,40.9936],[8.251,41.0161],[8.2512,41.0438],[8.2747,41.0573]]]}},{"type":"Feature","properties":{},"geometry":{"type":"MultiLineString","coordinates":[[[9.7922,40.557],[9.7869,40.5671],[9.7858,40.5759],[9.7819,40.582],[9.7681,40.5843],[9.7616,40.5873],[9.7565,40.5952],[9.7532,40.6053],[9.7483,40.6672],[9.7445,40.6805],[9.7142,40.7272],[9.7103,40.7456],[9.7039,40.7594],[9.6758,40.7886],[9.6698,40.8015],[9.6688,40.7904],[9.6579,40.7999],[9.6618,40.809],[9.6745,40.8139],[9.6898,40.8108],[9.6898,40.817],[9.681,40.8298],[9.6911,40.8362],[9.724,40.8449],[9.7109,40.8469],[9.6994,40.85],[9.6898,40.8559],[9.6831,40.8654],[9.6717,40.8587],[9.6633,40.8582],[9.6577,40.864],[9.6558,40.876],[9.6501,40.8795],[9.6141,40.8934],[9.6141,40.8996],[9.6239,40.9007],[9.6315,40.9049],[9.6372,40.9116],[9.6421,40.9206],[9.6226,40.9238],[9.6077,40.9179],[9.5928,40.9099],[9.5733,40.9064],[9.5672,40.9084],[9.5493,40.9172],[9.5391,40.9206],[9.529,40.9193],[9.52,40.915],[9.512,40.9152],[9.5042,40.9269],[9.5125,40.928],[9.5112,40.9294],[9.5119,40.9343],[9.5575,40.9312],[9.5711,40.9349],[9.5664,40.9486],[9.5789,40.962],[9.5825,40.9799],[9.5876,40.9958],[9.6043,41.0026],[9.6196,40.9988],[9.636,40.9924],[9.6512,40.9911],[9.6626,41.0026],[9.6443,41.0117],[9.6157,41.0196],[9.5881,41.0207],[9.5733,41.0095],[9.5686,41.0095],[9.5657,41.0109],[9.5596,41.0163],[9.5583,41.0136],[9.5586,41.0111],[9.5578,41.0094],[9.5527,41.0095],[9.5576,41.0251],[9.5542,41.0346],[9.5431,41.0369],[9.5247,41.0305],[9.5322,41.0163],[9.5119,41.0163],[9.5213,41.0317],[9.5391,41.092],[9.5408,41.0873],[9.5438,41.0825],[9.5459,41.0777],[9.5564,41.0878],[9.5623,41.0971],[9.5651,41.1071],[9.5664,41.1193],[9.563,41.1212],[9.5618,41.1211],[9.5612,41.1218],[9.5596,41.1261],[9.5527,41.1261],[9.5462,41.1209],[9.5408,41.1229],[9.5344,41.1281],[9.5247,41.133],[9.5322,41.1404],[9.5239,41.1497],[9.5184,41.1487],[9.5139,41.1435],[9.5081,41.1404],[9.4944,41.1423],[9.4815,41.1456],[9.4691,41.1462],[9.4566,41.1404],[9.4624,41.1376],[9.4651,41.1344],[9.4668,41.1307],[9.4701,41.1261],[9.4605,41.1205],[9.4541,41.112],[9.4429,41.092],[9.4368,41.1154],[9.437,41.1254],[9.4429,41.133],[9.4328,41.1408],[9.4266,41.1492],[9.4202,41.1564],[9.4087,41.1603],[9.4121,41.1645],[9.4143,41.1682],[9.417,41.1715],[9.4224,41.1745],[9.4224,41.1807],[9.4123,41.1807],[9.4041,41.1817],[9.3967,41.1839],[9.3882,41.1876],[9.3882,41.1807],[9.3521,41.2073],[9.3352,41.2117],[9.333,41.1876],[9.3166,41.1965],[9.3125,41.2012],[9.3054,41.1979],[9.2996,41.1965],[9.2853,41.195],[9.2853,41.2012],[9.2883,41.2058],[9.2893,41.2087],[9.2853,41.2217],[9.2783,41.2217],[9.2749,41.2124],[9.2736,41.2051],[9.2747,41.1995],[9.2783,41.195],[9.2674,41.202],[9.2681,41.2366],[9.2578,41.2497],[9.2469,41.2477],[9.2383,41.2488],[9.2327,41.2536],[9.2306,41.2626],[9.2124,41.2558],[9.19,41.2511],[9.1711,41.2429],[9.1629,41.2254],[9.1634,41.1841],[9.1576,41.1689],[9.1419,41.1528],[9.1356,41.1603],[9.1078,41.1395],[9.093,41.1352],[9.0247,41.1289],[9.0055,41.1219],[8.9907,41.0974],[8.9758,41.0827],[8.9588,41.07],[8.9463,41.0646],[8.9401,41.0612],[8.9295,41.0436],[8.9227,41.0368],[8.9131,41.0327],[8.8811,41.0237],[8.8853,41.0218],[8.8859,41.0212],[8.8859,41.0201],[8.888,41.0163],[8.8753,41.0081],[8.8396,40.9616],[8.8225,40.9473],[8.7644,40.9138],[8.7512,40.9191],[8.7339,40.9213],[8.7092,40.9206],[8.641,40.8965],[8.6343,40.8816],[8.6183,40.8662],[8.5984,40.853],[8.5205,40.827],[8.501,40.8244],[8.4779,40.8262],[8.4219,40.8388],[8.3102,40.8507],[8.2778,40.8654],[8.2332,40.9101],[8.2293,40.9216],[8.2316,40.9345],[8.2355,40.9465],[8.2362,40.9548],[8.229,40.9626],[8.22,40.9623],[8.2126,40.9634],[8.2096,40.9753],[8.2022,40.9753],[8.193,40.9638],[8.1823,40.9453],[8.1789,40.9282],[8.1921,40.9206],[8.2097,40.9145],[8.2163,40.8996],[8.2153,40.8814],[8.2096,40.8654],[8.1338,40.7289],[8.1458,40.726],[8.1533,40.7197],[8.168,40.7016],[8.1738,40.697],[8.179,40.6948],[8.1921,40.6942],[8.1974,40.6912],[8.1956,40.6853],[8.1911,40.6804],[8.1885,40.6805],[8.1853,40.6566],[8.1738,40.6416],[8.1577,40.6323],[8.1406,40.6252],[8.1406,40.619],[8.1473,40.5932],[8.1531,40.5778],[8.1618,40.5638],[8.1662,40.5864],[8.1766,40.6066],[8.1934,40.6175],[8.2163,40.6122],[8.2053,40.5978],[8.196,40.5781],[8.2163,40.5706],[8.2673,40.5941],[8.2915,40.5954],[8.312,40.5781],[8.3196,40.5556],[8.3239,40.5308],[8.3317,40.5107],[8.3499,40.5023],[8.3656,40.4921],[8.3799,40.4687],[8.3905,40.4423],[8.3945,40.4238],[8.3836,40.3718],[8.386,40.3518],[8.4082,40.3378],[8.4157,40.3453],[8.4413,40.3314],[8.4629,40.3145],[8.4761,40.2921],[8.4764,40.2622],[8.4596,40.216],[8.4634,40.1632],[8.4673,40.1447],[8.4851,40.1181],[8.49,40.1045],[8.4873,40.0895],[8.479,40.0742],[8.4686,40.0622],[8.4597,40.0573],[8.4524,40.0561],[8.4348,40.051],[8.4045,40.0495],[8.4014,40.0499],[8.3845,40.0419],[8.3772,40.0338],[8.3801,40.0301],[8.3945,40.0362],[8.4071,40.0222],[8.4065,40.0098],[8.3945,39.9884],[8.3936,39.9769],[8.4014,39.94],[8.3999,39.9332],[8.3963,39.9269],[8.3936,39.9205],[8.3945,39.9127],[8.3983,39.9053],[8.4007,39.9035],[8.4036,39.9029],[8.4183,39.8923],[8.431,39.8852],[8.4375,39.8768],[8.4287,39.8655],[8.4354,39.8581],[8.4447,39.8836],[8.4518,39.8929],[8.4634,39.899],[8.4558,39.8985],[8.45,39.8991],[8.4456,39.8981],[8.4422,39.8928],[8.4354,39.899],[8.4631,39.9141],[8.4942,39.9124],[8.5234,39.8989],[8.5453,39.8786],[8.5536,39.864],[8.5552,39.8527],[8.5521,39.8208],[8.5488,39.8072],[8.5408,39.7893],[8.5298,39.7725],[8.5181,39.7625],[8.5249,39.7658],[8.5305,39.7704],[8.5352,39.7761],[8.5386,39.7829],[8.5453,39.7829],[8.5355,39.7708],[8.5199,39.7554],[8.5068,39.7385],[8.5044,39.7215],[8.5145,39.7137],[8.5658,39.7011],[8.5383,39.696],[8.5169,39.7021],[8.4998,39.7162],[8.4686,39.755],[8.4597,39.7605],[8.4461,39.7625],[8.444,39.757],[8.4465,39.7309],[8.4422,39.7215],[8.4422,39.7147],[8.4468,39.7041],[8.4497,39.6588],[8.4622,39.6171],[8.4639,39.5979],[8.4559,39.5844],[8.4634,39.5769],[8.4517,39.5583],[8.4353,39.5252],[8.4219,39.5086],[8.3945,39.4813],[8.3869,39.4698],[8.386,39.4655],[8.3895,39.4623],[8.4038,39.4359],[8.405,39.4272],[8.4014,39.4124],[8.3957,39.4042],[8.3782,39.3879],[8.374,39.3789],[8.3821,39.3597],[8.4172,39.339],[8.4157,39.3237],[8.4321,39.3018],[8.4264,39.2833],[8.3767,39.2379],[8.3718,39.2306],[8.3728,39.2221],[8.3801,39.2076],[8.3855,39.2044],[8.3926,39.204],[8.3987,39.2012],[8.4014,39.1902],[8.4024,39.1813],[8.405,39.1744],[8.4095,39.1693],[8.4157,39.166],[8.4126,39.1757],[8.4188,39.1773],[8.4284,39.1732],[8.4354,39.166],[8.4387,39.1531],[8.438,39.1285],[8.4422,39.1181],[8.4543,39.1249],[8.4651,39.1195],[8.4733,39.1074],[8.4776,39.0905],[8.4821,39.0842],[8.4828,39.0804],[8.5044,39.0909],[8.5181,39.0834],[8.509,39.0679],[8.5044,39.0629],[8.5208,39.0609],[8.5443,39.0513],[8.5521,39.0567],[8.5596,39.0567],[8.5723,39.0136],[8.5801,38.9605],[8.6033,38.9649],[8.6155,38.9476],[8.615,38.923],[8.5999,38.906],[8.5999,38.8991],[8.6156,38.8959],[8.6331,38.8956],[8.6428,38.89],[8.6348,38.8712],[8.641,38.8643],[8.6551,38.8712],[8.6516,38.8915],[8.6688,38.9106],[8.6946,38.9252],[8.7166,38.9326],[8.7395,38.9306],[8.7666,38.9204],[8.791,38.9044],[8.8054,38.8854],[8.8054,38.906],[8.8279,38.8888],[8.8415,38.8806],[8.8533,38.878],[8.8613,38.8821],[8.8724,38.8961],[8.8775,38.8991],[8.888,38.8998],[8.8947,38.9023],[8.9963,38.9828],[9.0046,38.9953],[9.0121,38.9907],[9.0151,38.9897],[9.0257,38.9953],[9.0183,38.9953],[9.0293,39.0303],[9.0449,39.0513],[9.0438,39.0584],[9.0378,39.0637],[9.032,39.0698],[9.0246,39.0861],[9.0187,39.1039],[9.016,39.1238],[9.0183,39.1461],[9.0262,39.1652],[9.0386,39.179],[9.0789,39.2123],[9.0798,39.2165],[9.0798,39.2246],[9.075,39.2299],[9.0501,39.2257],[9.0387,39.228],[9.0379,39.2271],[9.0352,39.2322],[9.0269,39.2357],[9.021,39.2404],[9.0257,39.2485],[9.0257,39.256],[9.0125,39.2606],[9.0139,39.2639],[9.0244,39.2648],[9.0387,39.2622],[9.0475,39.256],[9.0555,39.2475],[9.0637,39.2431],[9.073,39.2485],[9.1135,39.2115],[9.1369,39.1943],[9.166,39.1871],[9.1697,39.1933],[9.1809,39.2072],[9.1974,39.2211],[9.2163,39.228],[9.2525,39.2252],[9.2713,39.2205],[9.2853,39.2138],[9.2922,39.2213],[9.2996,39.2145],[9.3123,39.2079],[9.3262,39.2028],[9.3367,39.2008],[9.3451,39.1964],[9.3679,39.1772],[9.3777,39.1728],[9.3835,39.1693],[9.4087,39.1461],[9.429,39.1386],[9.438,39.1334],[9.4429,39.1244],[9.4504,39.1244],[9.4653,39.1319],[9.4807,39.1356],[9.4963,39.1336],[9.5119,39.1244],[9.5076,39.1164],[9.5071,39.1114],[9.5108,39.108],[9.5186,39.1046],[9.5227,39.1249],[9.5396,39.134],[9.5578,39.1397],[9.5664,39.1492],[9.5685,39.1594],[9.5779,39.1794],[9.5799,39.1871],[9.576,39.1939],[9.5689,39.1993],[9.5656,39.2051],[9.5733,39.2138],[9.5676,39.2381],[9.5819,39.2663],[9.6073,39.289],[9.6346,39.2969],[9.6346,39.3032],[9.6116,39.3166],[9.6035,39.3262],[9.6004,39.341],[9.6021,39.3557],[9.6141,39.3994],[9.639,39.4525],[9.6449,39.484],[9.6284,39.5018],[9.653,39.5668],[9.6558,39.5945],[9.6489,39.639],[9.6511,39.6525],[9.6558,39.6629],[9.6604,39.6707],[9.6626,39.6768],[9.6648,39.6914],[9.6741,39.708],[9.6763,39.7181],[9.6751,39.7321],[9.6699,39.7566],[9.6688,39.7693],[9.6703,39.7938],[9.6755,39.8189],[9.6843,39.8399],[9.6966,39.8519],[9.6966,39.8581],[9.6919,39.8601],[9.6878,39.8635],[9.6831,39.8655],[9.6831,39.8717],[9.6898,39.8717],[9.6838,39.8825],[9.6843,39.8942],[9.6895,39.9066],[9.6966,39.9195],[9.7014,39.9221],[9.7082,39.9222],[9.7145,39.9245],[9.7178,39.9338],[9.7157,39.9401],[9.7097,39.9403],[9.7025,39.9372],[9.6966,39.9338],[9.6873,39.9612],[9.6934,39.9929],[9.7303,40.0685],[9.7323,40.0839],[9.7102,40.0963],[9.6878,40.1207],[9.6797,40.1262],[9.6651,40.1316],[9.6546,40.1446],[9.6311,40.1962],[9.6291,40.2056],[9.6248,40.2477],[9.6262,40.2631],[9.6346,40.2826],[9.6455,40.2961],[9.6702,40.3127],[9.6831,40.3242],[9.7009,40.353],[9.7124,40.3664],[9.7274,40.372],[9.7494,40.3773],[9.7617,40.3907],[9.7781,40.4272],[9.8003,40.4555],[9.8088,40.4708],[9.8122,40.4924],[9.8152,40.5025],[9.8267,40.5196],[9.8264,40.5296],[9.8206,40.5364],[9.7922,40.557]]]}},{"type":"Feature","properties":{},"geometry":{"type":"MultiLineString","coordinates":[[[10.8958,42.3867],[10.883,42.3922],[10.8758,42.3868],[10.8764,42.3744],[10.8618,42.3663],[10.8717,42.3541],[10.9089,42.3253],[10.9233,42.3187],[10.9398,42.3307],[10.9296,42.3406],[10.9273,42.3533],[10.9135,42.3752],[10.8958,42.3867]]]}},{"type":"Feature","properties":{},"geometry":{"type":"MultiLineString","coordinates":[[[9.4566,42.6474],[9.4768,42.6191],[9.4769,42.6201],[9.4821,42.6201],[9.4566,42.6474]]]}},{"type":"Feature","properties":{},"geometry":{"type":"MultiLineString","coordinates":[[[10.4434,42.8454],[10.4385,42.8555],[10.431,42.8644],[10.422,42.8708],[10.4124,42.8734],[10.3999,42.8688],[10.3921,42.858],[10.3814,42.8324],[10.3748,42.8271],[10.366,42.8229],[10.3581,42.8175],[10.3547,42.8082],[10.3473,42.8059],[10.3328,42.806],[10.3221,42.8117],[10.3268,42.8262],[10.2893,42.8256],[10.2721,42.8273],[10.2721,42.8262],[10.2721,42.8188],[10.259,42.8119],[10.2627,42.8102],[10.2643,42.8105],[10.2649,42.8094],[10.2659,42.8044],[10.2422,42.8032],[10.2244,42.8044],[10.2122,42.8078],[10.19,42.8169],[10.1795,42.8188],[10.1582,42.8173],[10.133,42.8119],[10.1117,42.8013],[10.1014,42.784],[10.1068,42.7574],[10.1248,42.7431],[10.1472,42.7373],[10.2297,42.7354],[10.2352,42.7359],[10.24,42.7419],[10.2454,42.7573],[10.2654,42.7446],[10.3045,42.7598],[10.3137,42.743],[10.325,42.7648],[10.3379,42.7648],[10.3512,42.7557],[10.3643,42.7498],[10.3672,42.746],[10.3773,42.728],[10.3814,42.7226],[10.3932,42.7182],[10.4033,42.7189],[10.411,42.718],[10.4155,42.7089],[10.4307,42.7221],[10.4251,42.7408],[10.408,42.7573],[10.3888,42.7635],[10.4069,42.769],[10.4203,42.7764],[10.43,42.7876],[10.4367,42.8044],[10.4307,42.8161],[10.4312,42.8279],[10.436,42.8381],[10.4434,42.8454]]]}},{"type":"Feature","properties":{},"geometry":{"type":"MultiLineString","coordinates":[[[8.5658,42.2086],[8.5778,42.2044],[8.5818,42.1945],[8.5776,42.1849],[8.5658,42.1813],[8.5658,42.1745],[8.5938,42.1745],[8.5938,42.1671],[8.5779,42.1588],[8.5697,42.1556],[8.5596,42.154],[8.5691,42.155],[8.5781,42.1542],[8.5863,42.1514],[8.5938,42.1466],[8.5911,42.1429],[8.5863,42.1335],[8.6067,42.1337],[8.6296,42.1301],[8.6477,42.122],[8.6551,42.1093],[8.6609,42.1055],[8.6888,42.1112],[8.6992,42.1093],[8.7062,42.1005],[8.7235,42.0721],[8.7391,42.0634],[8.745,42.0566],[8.7434,42.0441],[8.738,42.0439],[8.7113,42.0333],[8.7061,42.0305],[8.6843,42.0256],[8.6646,42.0145],[8.6561,42.0029],[8.6688,41.9963],[8.655,41.9787],[8.6355,41.9726],[8.5863,41.969],[8.6144,41.9441],[8.6187,41.9305],[8.6073,41.9138],[8.6143,41.9008],[8.6299,41.9086],[8.6476,41.9118],[8.6887,41.9138],[8.7103,41.9188],[8.7444,41.9328],[8.7644,41.9343],[8.7751,41.9323],[8.7814,41.9288],[8.786,41.9228],[8.7918,41.9138],[8.8031,41.9075],[8.8054,41.9069],[8.8034,41.9005],[8.7946,41.8922],[8.7918,41.8871],[8.7901,41.8869],[8.7781,41.8728],[8.7817,41.8737],[8.7858,41.868],[8.7893,41.8613],[8.7918,41.8591],[8.7837,41.8536],[8.7508,41.8455],[8.7624,41.8441],[8.7723,41.8404],[8.78,41.8339],[8.7849,41.8244],[8.7523,41.8098],[8.7319,41.8046],[8.7092,41.8045],[8.7092,41.7971],[8.7202,41.7917],[8.722,41.7824],[8.7175,41.772],[8.7092,41.7636],[8.6963,41.7582],[8.6682,41.7549],[8.6551,41.7499],[8.668,41.7475],[8.678,41.7441],[8.6887,41.7418],[8.703,41.7425],[8.6981,41.7331],[8.6956,41.7294],[8.7191,41.7307],[8.7601,41.7427],[8.7849,41.7425],[8.7761,41.7224],[8.7888,41.7126],[8.8123,41.7093],[8.8364,41.7089],[8.8992,41.6955],[8.9227,41.6946],[8.9107,41.6838],[8.897,41.6779],[8.8858,41.6709],[8.8811,41.6571],[8.8726,41.6511],[8.819,41.6326],[8.8018,41.6391],[8.792,41.6251],[8.7854,41.6047],[8.7781,41.5916],[8.7932,41.5873],[8.7964,41.5806],[8.7918,41.5612],[8.7972,41.5571],[8.8099,41.5527],[8.8239,41.55],[8.8333,41.5507],[8.8406,41.5473],[8.8533,41.5438],[8.8533,41.5377],[8.8396,41.5308],[8.8484,41.5261],[8.8563,41.5253],[8.8643,41.5253],[8.8737,41.5234],[8.8792,41.5194],[8.8811,41.5148],[8.8836,41.5112],[8.9069,41.5073],[8.9168,41.5017],[8.9248,41.4949],[8.9357,41.4892],[8.951,41.4919],[8.9756,41.4891],[9.001,41.4831],[9.0115,41.4761],[9.0183,41.4687],[9.0241,41.4721],[9.0281,41.4738],[9.0387,41.4761],[9.0366,41.4728],[9.0354,41.4716],[9.0342,41.4709],[9.032,41.4687],[9.0387,41.4619],[9.0682,41.4795],[9.0798,41.4824],[9.0798,41.4761],[9.0666,41.4619],[9.0809,41.4532],[9.1052,41.4455],[9.1213,41.4346],[9.1122,41.4326],[9.1073,41.4293],[9.0964,41.4035],[9.1222,41.395],[9.1533,41.3913],[9.1691,41.3862],[9.1939,41.3691],[9.2067,41.3659],[9.2232,41.3725],[9.2302,41.3809],[9.2388,41.3959],[9.2466,41.4129],[9.2503,41.4278],[9.238,41.4223],[9.222,41.411],[9.2107,41.4073],[9.2107,41.4135],[9.22,41.4196],[9.2233,41.4273],[9.2201,41.435],[9.2107,41.4409],[9.2107,41.4482],[9.228,41.45],[9.2552,41.4636],[9.2708,41.4687],[9.2647,41.4761],[9.2747,41.4829],[9.2791,41.4916],[9.2762,41.4994],[9.2647,41.5029],[9.2687,41.51],[9.2699,41.5168],[9.2687,41.5237],[9.2647,41.5308],[9.282,41.5333],[9.2922,41.5429],[9.2997,41.5533],[9.3091,41.5582],[9.3267,41.5611],[9.3411,41.5693],[9.3506,41.5812],[9.3542,41.5954],[9.3451,41.6045],[9.325,41.602],[9.2922,41.5916],[9.2786,41.5984],[9.2844,41.6077],[9.294,41.6176],[9.2922,41.6264],[9.3037,41.6278],[9.3182,41.6271],[9.3333,41.6245],[9.3467,41.6196],[9.3421,41.6347],[9.3452,41.6403],[9.3532,41.6408],[9.3636,41.64],[9.3731,41.6452],[9.3779,41.6564],[9.3807,41.6742],[9.367,41.6742],[9.3722,41.6839],[9.3812,41.6927],[9.3911,41.699],[9.3986,41.7015],[9.4016,41.7064],[9.403,41.7797],[9.3943,41.848],[9.4028,41.9174],[9.4032,41.9529],[9.4087,41.9622],[9.4238,41.9735],[9.4924,42.0478],[9.5078,42.0722],[9.5186,42.0851],[9.5456,42.104],[9.5527,42.113],[9.5549,42.1208],[9.5569,42.1383],[9.5596,42.1466],[9.5523,42.1702],[9.5596,42.2946],[9.5554,42.3143],[9.537,42.3532],[9.5322,42.3737],[9.5327,42.3925],[9.5354,42.4082],[9.5399,42.4221],[9.5459,42.4351],[9.5334,42.4562],[9.53,42.4863],[9.5322,42.5444],[9.5281,42.5635],[9.5186,42.581],[9.4896,42.6126],[9.5047,42.5866],[9.5091,42.58],[9.5119,42.5655],[9.4849,42.5744],[9.4769,42.5792],[9.4707,42.5872],[9.468,42.595],[9.4646,42.6016],[9.4566,42.6064],[9.4614,42.6146],[9.4617,42.6198],[9.4592,42.6254],[9.4566,42.6344],[9.4546,42.6346],[9.45,42.6357],[9.4453,42.6379],[9.4429,42.6406],[9.4434,42.6452],[9.4461,42.6486],[9.4491,42.6511],[9.4504,42.6536],[9.4494,42.6826],[9.4514,42.6967],[9.4504,42.7089],[9.4828,42.8023],[9.4844,42.8324],[9.4655,42.9235],[9.4701,42.9423],[9.4588,42.9523],[9.4539,42.9638],[9.4556,42.9746],[9.464,42.9826],[9.464,42.9901],[9.4445,42.998],[9.4356,43.0037],[9.4224,43.0174],[9.4043,43.0117],[9.363,43.0115],[9.3467,43.0037],[9.3418,42.9907],[9.3434,42.9731],[9.3499,42.9572],[9.3602,42.9491],[9.3569,42.9407],[9.3557,42.9365],[9.3568,42.9335],[9.3602,42.9286],[9.3369,42.9104],[9.3303,42.9036],[9.3262,42.8938],[9.3263,42.8853],[9.3329,42.8758],[9.333,42.8671],[9.3057,42.8393],[9.3218,42.8239],[9.3355,42.8076],[9.341,42.7901],[9.333,42.7709],[9.3425,42.7491],[9.3279,42.72],[9.2922,42.6748],[9.2853,42.6748],[9.2761,42.6942],[9.2708,42.7022],[9.2647,42.7089],[9.2578,42.7139],[9.2368,42.7226],[9.1851,42.7334],[9.176,42.7328],[9.1652,42.7352],[9.1414,42.735],[9.1178,42.732],[9.1071,42.7259],[9.053,42.6816],[9.05,42.6622],[9.0183,42.6501],[8.9065,42.6325],[8.843,42.6081],[8.8054,42.6064],[8.8128,42.5996],[8.8075,42.5851],[8.7988,42.5718],[8.787,42.562],[8.7713,42.5581],[8.7596,42.5618],[8.7507,42.5688],[8.74,42.5723],[8.7235,42.5655],[8.7209,42.5741],[8.7197,42.576],[8.717,42.5761],[8.7092,42.5792],[8.7092,42.5717],[8.7163,42.562],[8.7108,42.5401],[8.7166,42.5307],[8.6976,42.527],[8.6804,42.5211],[8.6675,42.5097],[8.6594,42.4844],[8.6571,42.48],[8.6597,42.4771],[8.672,42.4761],[8.6768,42.4725],[8.6724,42.4644],[8.6614,42.4519],[8.6616,42.4398],[8.6595,42.4299],[8.6509,42.4233],[8.6187,42.4196],[8.614,42.4162],[8.6121,42.4118],[8.6073,42.4072],[8.6035,42.4003],[8.6024,42.3919],[8.5986,42.3876],[8.5863,42.393],[8.5796,42.3859],[8.5705,42.3818],[8.5608,42.3817],[8.5521,42.3867],[8.5491,42.3771],[8.5497,42.3658],[8.5535,42.3549],[8.5596,42.3464],[8.5521,42.3389],[8.5916,42.3511],[8.6128,42.3524],[8.6348,42.3389],[8.6047,42.3256],[8.5999,42.3219],[8.6014,42.3148],[8.6053,42.3105],[8.6111,42.31],[8.6252,42.3192],[8.6296,42.3153],[8.6323,42.3087],[8.6348,42.3048],[8.672,42.2912],[8.674,42.2895],[8.6887,42.281],[8.6878,42.2729],[8.6852,42.2719],[8.6808,42.2728],[8.6751,42.2707],[8.6647,42.2649],[8.6511,42.2604],[8.6108,42.2546],[8.6013,42.2507],[8.5938,42.2463],[8.5863,42.2434],[8.5599,42.2443],[8.5495,42.2423],[8.5453,42.2329],[8.5524,42.229],[8.5658,42.2257],[8.5741,42.2199],[8.5658,42.2086]]]}},{"type":"Feature","properties":{},"geometry":{"type":"MultiLineString","coordinates":[[[9.8401,43.0652],[9.8258,43.0746],[9.8069,43.0664],[9.7846,43.0284],[9.8015,43.0078],[9.823,43.0085],[9.8421,43.025],[9.8548,43.0443],[9.8475,43.0586],[9.8439,43.0607],[9.8418,43.0634],[9.8401,43.0652]]]}},{"type":"Feature","properties":{},"geometry":{"type":"MultiLineString","coordinates":[[[2.9854,39.1662],[2.9823,39.1392],[2.9622,39.1161],[2.9309,39.1182],[2.9136,39.152],[2.9404,39.1719],[2.9806,39.1856],[2.9854,39.1662]]]}},{"type":"Feature","properties":{},"geometry":{"type":"MultiLineString","coordinates":[[[9.4748,41.2361],[9.468,41.2411],[9.46,41.2424],[9.4539,41.234],[9.4465,41.2204],[9.4435,41.2115],[9.4478,41.2051],[9.437,41.1859],[9.4417,41.1831],[9.4487,41.1855],[9.4564,41.1806],[9.4644,41.1727],[9.4704,41.1721],[9.4749,41.1793],[9.4744,41.1843],[9.471,41.1896],[9.4793,41.2169],[9.4795,41.2242],[9.4784,41.2285],[9.4748,41.2361]]]}},{"type":"Feature","properties":{},"geometry":{"type":"MultiLineString","coordinates":[[[9.4309,41.2248],[9.429,41.2294],[9.4304,41.2378],[9.4305,41.2463],[9.4274,41.2541],[9.4219,41.2609],[9.4142,41.2624],[9.408,41.2581],[9.4022,41.2575],[9.398,41.256],[9.3963,41.2477],[9.3919,41.2407],[9.3849,41.2365],[9.3776,41.2338],[9.3731,41.2299],[9.3731,41.2219],[9.377,41.2133],[9.3953,41.2106],[9.4353,41.217],[9.4343,41.2206],[9.4309,41.2248]]]}},{"type":"Feature","properties":{},"geometry":{"type":"MultiLineString","coordinates":[[[10.297,42.3449],[10.2944,42.328],[10.3132,42.3239],[10.3159,42.3408],[10.3064,42.3515],[10.297,42.3449]]]}},{"type":"Feature","properties":{},"geometry":{"type":"MultiLineString","coordinates":[[[10.0916,42.5958],[10.0877,42.604],[10.0843,42.6147],[10.0794,42.6139],[10.0726,42.6004],[10.0628,42.592],[10.0526,42.589],[10.0503,42.5819],[10.0586,42.576],[10.0718,42.5727],[10.0858,42.5725],[10.0954,42.577],[10.0979,42.5839],[10.0979,42.588],[10.096,42.5907],[10.0916,42.5958]]]}},{"type":"Feature","properties":{},"geometry":{"type":"MultiLineString","coordinates":[[[6.235,43.0224],[6.2334,43.0156],[6.221,43.015],[6.2183,43.0154],[6.215,43.0147],[6.2116,43.0116],[6.203,43.008],[6.1751,43.009],[6.1647,43.0051],[6.1662,42.9997],[6.1901,42.9902],[6.2025,42.9871],[6.2165,42.9904],[6.2302,42.9953],[6.2522,43.0026],[6.251,43.0173],[6.2419,43.0256],[6.235,43.0224]]]}}]}